[
  {
    "id": 0,
    "parent_id": 0,
    "name": "DAV Bundesverband",
    "layer_group_id": 0,
    "street": "Anni-Albers-Straße 7",
    "zip_code": "80807",
    "town": "München",
    "foundation_year": 0,
    "section_canton": "N/A",
    "language": "DE"
  },
  {
    "id": 1,
    "parent_id": 0,
    "name": "Sektion Aachen",
    "layer_group_id": 1,
    "street": "Römerstr. 41 - 43",
    "zip_code": "52064",
    "town": "Aachen",
    "foundation_year": 0,
    "section_canton": "N/A",
    "language": "DE"
  },
  {
    "id": 2,
    "parent_id": 0,
    "name": "Sektion Achensee",
    "layer_group_id": 2,
    "street": "Karlsteinstr. 3 A",
    "zip_code": "80937",
    "town": "München",
    "foundation_year": 0,
    "section_canton": "N/A",
    "language": "DE"
  },
  {
    "id": 3,
    "parent_id": 0,
    "name": "Sektion Achental",
    "layer_group_id": 3,
    "street": "Bahnhofstr. 2",
    "zip_code": "83250",
    "town": "Marquartstein",
    "foundation_year": 0,
    "section_canton": "N/A",
    "language": "DE"
  },
  {
    "id": 4,
    "parent_id": 0,
    "name": "Sektion Bad Aibling",
    "layer_group_id": 4,
    "street": "Ganghoferstraße 7 a",
    "zip_code": "83043",
    "town": "Bad Aibling",
    "foundation_year": 0,
    "section_canton": "N/A",
    "language": "DE"
  },
  {
    "id": 5,
    "parent_id": 0,
    "name": "Sektion Aichach",
    "layer_group_id": 5,
    "street": "Blumenthaler Straße 24",
    "zip_code": "86551",
    "town": "Aichach",
    "foundation_year": 0,
    "section_canton": "N/A",
    "language": "DE"
  },
  {
    "id": 6,
    "parent_id": 0,
    "name": "Akademische Sektion München",
    "layer_group_id": 6,
    "street": "Menterschwaigstr. 12",
    "zip_code": "81545",
    "town": "München",
    "foundation_year": 0,
    "section_canton": "N/A",
    "language": "DE"
  },
  {
    "id": 7,
    "parent_id": 0,
    "name": "Sektion Allgäu-Immenstadt",
    "layer_group_id": 7,
    "street": "Hochstraße 12",
    "zip_code": "87527",
    "town": "Sonthofen",
    "foundation_year": 0,
    "section_canton": "N/A",
    "language": "DE"
  },
  {
    "id": 8,
    "parent_id": 0,
    "name": "Sektion Allgäu-Kempten",
    "layer_group_id": 8,
    "street": "Aybühlweg 69",
    "zip_code": "87439",
    "town": "Kempten",
    "foundation_year": 0,
    "section_canton": "N/A",
    "language": "DE"
  },
  {
    "id": 9,
    "parent_id": 0,
    "name": "Sektion Alpenkranzl Erding",
    "layer_group_id": 9,
    "street": "An der Melkstatt 9",
    "zip_code": "85435",
    "town": "Erding",
    "foundation_year": 0,
    "section_canton": "N/A",
    "language": "DE"
  },
  {
    "id": 10,
    "parent_id": 0,
    "name": "Sektion Alpenkranzl Holzkirchen",
    "layer_group_id": 10,
    "street": "Roggersdorfer Str. 51 b",
    "zip_code": "83607",
    "town": "Holzkirchen",
    "foundation_year": 0,
    "section_canton": "N/A",
    "language": "DE"
  },
  {
    "id": 11,
    "parent_id": 0,
    "name": "Sektion Alpenland",
    "layer_group_id": 11,
    "street": "Postfach 14 51",
    "zip_code": "83604",
    "town": "Holzkirchen",
    "foundation_year": 0,
    "section_canton": "N/A",
    "language": "DE"
  },
  {
    "id": 12,
    "parent_id": 0,
    "name": "Sektion ASS Saarbrücken",
    "layer_group_id": 12,
    "street": "Rosenstr. 31",
    "zip_code": "66111",
    "town": "Saarbrücken",
    "foundation_year": 0,
    "section_canton": "N/A",
    "language": "DE"
  },
  {
    "id": 13,
    "parent_id": 0,
    "name": "Sektion Alpiner Ski-Club e.V. München",
    "layer_group_id": 13,
    "street": "Stolzenfelsstraße 4a",
    "zip_code": "81375",
    "town": "München",
    "foundation_year": 0,
    "section_canton": "N/A",
    "language": "DE"
  },
  {
    "id": 14,
    "parent_id": 0,
    "name": "Sektion Amberg",
    "layer_group_id": 14,
    "street": "Dekan-Hirtreiter-Str. 5",
    "zip_code": "92224",
    "town": "Amberg",
    "foundation_year": 0,
    "section_canton": "N/A",
    "language": "DE"
  },
  {
    "id": 15,
    "parent_id": 0,
    "name": "Sektion Ammersee",
    "layer_group_id": 15,
    "street": "Mühlstraße 14",
    "zip_code": "86911",
    "town": "Dießen",
    "foundation_year": 0,
    "section_canton": "N/A",
    "language": "DE"
  },
  {
    "id": 16,
    "parent_id": 0,
    "name": "Sektion Ansbach",
    "layer_group_id": 16,
    "street": "Turnitzstr. 30",
    "zip_code": "91522",
    "town": "Ansbach",
    "foundation_year": 0,
    "section_canton": "N/A",
    "language": "DE"
  },
  {
    "id": 17,
    "parent_id": 0,
    "name": "Sektion Pfaffenhofen-Asch",
    "layer_group_id": 17,
    "street": "Ingolstädter Str. 68",
    "zip_code": "85276",
    "town": "Pfaffenhofen",
    "foundation_year": 0,
    "section_canton": "N/A",
    "language": "DE"
  },
  {
    "id": 18,
    "parent_id": 0,
    "name": "Sektion Aschaffenburg",
    "layer_group_id": 18,
    "street": "Wendelbergstr. 34",
    "zip_code": "63739",
    "town": "Aschaffenburg",
    "foundation_year": 0,
    "section_canton": "N/A",
    "language": "DE"
  },
  {
    "id": 19,
    "parent_id": 0,
    "name": "Sektion Augsburg",
    "layer_group_id": 19,
    "street": "Peutingerstr. 24",
    "zip_code": "86152",
    "town": "Augsburg",
    "foundation_year": 0,
    "section_canton": "N/A",
    "language": "DE"
  },
  {
    "id": 20,
    "parent_id": 0,
    "name": "Sektion Aulendorf",
    "layer_group_id": 20,
    "street": "Birnbaumweg 28",
    "zip_code": "88326",
    "town": "Aulendorf",
    "foundation_year": 0,
    "section_canton": "N/A",
    "language": "DE"
  },
  {
    "id": 22,
    "parent_id": 0,
    "name": "Sektion Baar",
    "layer_group_id": 22,
    "street": "Möglingstraße 30",
    "zip_code": "78056",
    "town": "Villingen-Schwenningen",
    "foundation_year": 0,
    "section_canton": "N/A",
    "language": "DE"
  },
  {
    "id": 23,
    "parent_id": 0,
    "name": "Sektion Baden-Baden/Murgtal",
    "layer_group_id": 23,
    "street": "Flugstraße 17",
    "zip_code": "76532",
    "town": "Baden-Baden",
    "foundation_year": 0,
    "section_canton": "N/A",
    "language": "DE"
  },
  {
    "id": 24,
    "parent_id": 0,
    "name": "Sektion Bamberg",
    "layer_group_id": 24,
    "street": "Markusplatz 14 R",
    "zip_code": "96047",
    "town": "Bamberg",
    "foundation_year": 0,
    "section_canton": "N/A",
    "language": "DE"
  },
  {
    "id": 25,
    "parent_id": 0,
    "name": "Sektion Wuppertal",
    "layer_group_id": 25,
    "street": "Badische Str. 76",
    "zip_code": "42389",
    "town": "Wuppertal",
    "foundation_year": 0,
    "section_canton": "N/A",
    "language": "DE"
  },
  {
    "id": 26,
    "parent_id": 0,
    "name": "Sektion Bayerland",
    "layer_group_id": 26,
    "street": "Falkensteinstraße 33 a",
    "zip_code": "82467",
    "town": "Garmisch Partenkirchen",
    "foundation_year": 0,
    "section_canton": "N/A",
    "language": "DE"
  },
  {
    "id": 27,
    "parent_id": 0,
    "name": "Sektion Bayreuth",
    "layer_group_id": 27,
    "street": "Leuschnerstraße 18",
    "zip_code": "95447",
    "town": "Bayreuth",
    "foundation_year": 0,
    "section_canton": "N/A",
    "language": "DE"
  },
  {
    "id": 28,
    "parent_id": 0,
    "name": "Sektion Beckum",
    "layer_group_id": 28,
    "street": "Lönkerstraße 18",
    "zip_code": "59269",
    "town": "Beckum",
    "foundation_year": 0,
    "section_canton": "N/A",
    "language": "DE"
  },
  {
    "id": 29,
    "parent_id": 0,
    "name": "DAV Berchtesgaden",
    "layer_group_id": 29,
    "street": "Watzmannstraße 4",
    "zip_code": "83483",
    "town": "Bischofswiesen",
    "foundation_year": 0,
    "section_canton": "N/A",
    "language": "DE"
  },
  {
    "id": 30,
    "parent_id": 0,
    "name": "Sektion Bergbund",
    "layer_group_id": 30,
    "street": "Gräfelfinger Straße 122",
    "zip_code": "81375",
    "town": "München",
    "foundation_year": 0,
    "section_canton": "N/A",
    "language": "DE"
  },
  {
    "id": 31,
    "parent_id": 0,
    "name": "Sektion Bergbund Rosenheim",
    "layer_group_id": 31,
    "street": "Eichenholzstr. 8b",
    "zip_code": "83026",
    "town": "Rosenheim",
    "foundation_year": 0,
    "section_canton": "N/A",
    "language": "DE"
  },
  {
    "id": 32,
    "parent_id": 0,
    "name": "Sektion Bergfreunde Rheydt",
    "layer_group_id": 32,
    "street": "Heerstr. 84",
    "zip_code": "41199",
    "town": "Mönchengladbach",
    "foundation_year": 0,
    "section_canton": "N/A",
    "language": "DE"
  },
  {
    "id": 33,
    "parent_id": 0,
    "name": "Sektion Bergfreunde Saar",
    "layer_group_id": 33,
    "street": "Parallelstr. 2 a",
    "zip_code": "66583",
    "town": "Spiesen-Elversberg",
    "foundation_year": 0,
    "section_canton": "N/A",
    "language": "DE"
  },
  {
    "id": 34,
    "parent_id": 0,
    "name": "Sektion Bergfried",
    "layer_group_id": 34,
    "street": "Friedenstraße 66 c",
    "zip_code": "82110",
    "town": "Germering",
    "foundation_year": 0,
    "section_canton": "N/A",
    "language": "DE"
  },
  {
    "id": 35,
    "parent_id": 0,
    "name": "Sektion Alpenklub Berggeist",
    "layer_group_id": 35,
    "street": "Buchhofer Str. 30",
    "zip_code": "91809",
    "town": "Wellheim",
    "foundation_year": 0,
    "section_canton": "N/A",
    "language": "DE"
  },
  {
    "id": 36,
    "parent_id": 0,
    "name": "Sektion Bergland",
    "layer_group_id": 36,
    "street": "Schachblumenweg 9 a",
    "zip_code": "81377",
    "town": "München",
    "foundation_year": 0,
    "section_canton": "N/A",
    "language": "DE"
  },
  {
    "id": 37,
    "parent_id": 0,
    "name": "Sektion Berlin",
    "layer_group_id": 37,
    "street": "Seydlitzstraße 1K",
    "zip_code": "10557",
    "town": "Berlin",
    "foundation_year": 0,
    "section_canton": "N/A",
    "language": "DE"
  },
  {
    "id": 38,
    "parent_id": 0,
    "name": "Sektion Biberach",
    "layer_group_id": 38,
    "street": "Ehinger-Tor-Platz  3",
    "zip_code": "88400",
    "town": "Biberach",
    "foundation_year": 0,
    "section_canton": "N/A",
    "language": "DE"
  },
  {
    "id": 39,
    "parent_id": 0,
    "name": "Sektion Bielefeld",
    "layer_group_id": 39,
    "street": "Meisenstr. 65 a",
    "zip_code": "33607",
    "town": "Bielefeld",
    "foundation_year": 0,
    "section_canton": "N/A",
    "language": "DE"
  },
  {
    "id": 40,
    "parent_id": 0,
    "name": "Sektion Bochum",
    "layer_group_id": 40,
    "street": "Josephinenstr. 67",
    "zip_code": "44807",
    "town": "Bochum",
    "foundation_year": 0,
    "section_canton": "N/A",
    "language": "DE"
  },
  {
    "id": 41,
    "parent_id": 0,
    "name": "Sektion Bodenschneid",
    "layer_group_id": 41,
    "street": "Oberschlesische Str.15",
    "zip_code": "81929",
    "town": "München",
    "foundation_year": 0,
    "section_canton": "N/A",
    "language": "DE"
  },
  {
    "id": 42,
    "parent_id": 0,
    "name": "Sektion Bonn",
    "layer_group_id": 42,
    "street": "Gottfried-Claren-Straße 2",
    "zip_code": "53225",
    "town": "Bonn",
    "foundation_year": 0,
    "section_canton": "N/A",
    "language": "DE"
  },
  {
    "id": 43,
    "parent_id": 0,
    "name": "Sektion Braunschweig",
    "layer_group_id": 43,
    "street": "Münzstr. 9",
    "zip_code": "38100",
    "town": "Braunschweig",
    "foundation_year": 0,
    "section_canton": "N/A",
    "language": "DE"
  },
  {
    "id": 44,
    "parent_id": 0,
    "name": "Sektion Bremen",
    "layer_group_id": 44,
    "street": "Robert-Hooke-Str. 19",
    "zip_code": "28359",
    "town": "Bremen",
    "foundation_year": 0,
    "section_canton": "N/A",
    "language": "DE"
  },
  {
    "id": 45,
    "parent_id": 0,
    "name": "Sektion Brenztal",
    "layer_group_id": 45,
    "street": "Bahnhofstr. 5",
    "zip_code": "89518",
    "town": "Heidenheim",
    "foundation_year": 0,
    "section_canton": "N/A",
    "language": "DE"
  },
  {
    "id": 46,
    "parent_id": 0,
    "name": "Sektion Breslau/Sitz Stuttgart",
    "layer_group_id": 46,
    "street": "Veielbrunnenweg 80 A",
    "zip_code": "70372",
    "town": "Stuttgart",
    "foundation_year": 0,
    "section_canton": "N/A",
    "language": "DE"
  },
  {
    "id": 47,
    "parent_id": 0,
    "name": "Sektion Burghausen",
    "layer_group_id": 47,
    "street": "Robert-Koch-Straße 11a",
    "zip_code": "84489",
    "town": "Burghausen",
    "foundation_year": 0,
    "section_canton": "N/A",
    "language": "DE"
  },
  {
    "id": 48,
    "parent_id": 0,
    "name": "Sektion Burgkirchen",
    "layer_group_id": 48,
    "street": "Rupertusstrasse 2",
    "zip_code": "84508",
    "town": "Burgkirchen",
    "foundation_year": 0,
    "section_canton": "N/A",
    "language": "DE"
  },
  {
    "id": 49,
    "parent_id": 0,
    "name": "Sektion Celle",
    "layer_group_id": 49,
    "street": "Hannoversche Straße 30 d",
    "zip_code": "29221",
    "town": "Celle",
    "foundation_year": 0,
    "section_canton": "N/A",
    "language": "DE"
  },
  {
    "id": 50,
    "parent_id": 0,
    "name": "Sektion AlpinClub Berlin",
    "layer_group_id": 50,
    "street": "Spielhagenstr. 4",
    "zip_code": "10585",
    "town": "Berlin",
    "foundation_year": 0,
    "section_canton": "N/A",
    "language": "DE"
  },
  {
    "id": 52,
    "parent_id": 0,
    "name": "Sektion Coburg",
    "layer_group_id": 52,
    "street": "Gustav-Freytag-Weg 9",
    "zip_code": "96450",
    "town": "Coburg",
    "foundation_year": 0,
    "section_canton": "N/A",
    "language": "DE"
  },
  {
    "id": 53,
    "parent_id": 0,
    "name": "Sektion Darmstadt-Starkenburg",
    "layer_group_id": 53,
    "street": "Lichtwiesenweg 15",
    "zip_code": "64287",
    "town": "Darmstadt",
    "foundation_year": 0,
    "section_canton": "N/A",
    "language": "DE"
  },
  {
    "id": 54,
    "parent_id": 0,
    "name": "Sektion Deggendorf",
    "layer_group_id": 54,
    "street": "Sandnerhofweg 5",
    "zip_code": "94469",
    "town": "Deggendorf",
    "foundation_year": 0,
    "section_canton": "N/A",
    "language": "DE"
  },
  {
    "id": 55,
    "parent_id": 0,
    "name": "Sektion Lippe-Detmold",
    "layer_group_id": 55,
    "street": "Bismarckstr. 11",
    "zip_code": "32756",
    "town": "Detmold",
    "foundation_year": 0,
    "section_canton": "N/A",
    "language": "DE"
  },
  {
    "id": 56,
    "parent_id": 0,
    "name": "Sektion Deut. Skiclub Nürnberg",
    "layer_group_id": 56,
    "street": "Fritz-Erler-Straße 7",
    "zip_code": "90427",
    "town": "Nürnberg",
    "foundation_year": 0,
    "section_canton": "N/A",
    "language": "DE"
  },
  {
    "id": 57,
    "parent_id": 0,
    "name": "Sektion Dillingen",
    "layer_group_id": 57,
    "street": "Hackenbergstraße 5",
    "zip_code": "89407",
    "town": "Dillingen-Donaualtheim",
    "foundation_year": 0,
    "section_canton": "N/A",
    "language": "DE"
  },
  {
    "id": 58,
    "parent_id": 0,
    "name": "Sektion Donauwörth",
    "layer_group_id": 58,
    "street": "Hadergasse 17",
    "zip_code": "86609",
    "town": "Donauwörth",
    "foundation_year": 0,
    "section_canton": "N/A",
    "language": "DE"
  },
  {
    "id": 59,
    "parent_id": 0,
    "name": "Sektion Dortmund",
    "layer_group_id": 59,
    "street": "Märkische Str. 50",
    "zip_code": "44141",
    "town": "Dortmund",
    "foundation_year": 0,
    "section_canton": "N/A",
    "language": "DE"
  },
  {
    "id": 60,
    "parent_id": 0,
    "name": "Sektion Böblingen",
    "layer_group_id": 60,
    "street": "Jägerstraße 25",
    "zip_code": "71032",
    "town": "Böblingen",
    "foundation_year": 0,
    "section_canton": "N/A",
    "language": "DE"
  },
  {
    "id": 61,
    "parent_id": 0,
    "name": "Sektion Düren",
    "layer_group_id": 61,
    "street": "Kolpingstr. 24",
    "zip_code": "52349",
    "town": "Düren",
    "foundation_year": 0,
    "section_canton": "N/A",
    "language": "DE"
  },
  {
    "id": 62,
    "parent_id": 0,
    "name": "Sektion Düsseldorf",
    "layer_group_id": 62,
    "street": "Elisabethstr. 14",
    "zip_code": "40217",
    "town": "Düsseldorf",
    "foundation_year": 0,
    "section_canton": "N/A",
    "language": "DE"
  },
  {
    "id": 63,
    "parent_id": 0,
    "name": "Sektion Duisburg",
    "layer_group_id": 63,
    "street": "Lösorter Straße 115",
    "zip_code": "47137",
    "town": "Duisburg",
    "foundation_year": 0,
    "section_canton": "N/A",
    "language": "DE"
  },
  {
    "id": 64,
    "parent_id": 0,
    "name": "Sektion Ebersberg-Grafing",
    "layer_group_id": 64,
    "street": "Lagerhausstraße 17",
    "zip_code": "85567",
    "town": "Grafing",
    "foundation_year": 0,
    "section_canton": "N/A",
    "language": "DE"
  },
  {
    "id": 65,
    "parent_id": 0,
    "name": "Sektion Ebingen",
    "layer_group_id": 65,
    "street": "Schalksburgstr. 270",
    "zip_code": "72458",
    "town": "Albstadt",
    "foundation_year": 0,
    "section_canton": "N/A",
    "language": "DE"
  },
  {
    "id": 66,
    "parent_id": 0,
    "name": "Sektion Edelweiß München",
    "layer_group_id": 66,
    "street": "Wörnzhoferstraße 8",
    "zip_code": "81241",
    "town": "München",
    "foundation_year": 0,
    "section_canton": "N/A",
    "language": "DE"
  },
  {
    "id": 67,
    "parent_id": 0,
    "name": "Sektion Eger und Egerland",
    "layer_group_id": 67,
    "street": "Am Bauhof 1b",
    "zip_code": "91088",
    "town": "Bubenreuth",
    "foundation_year": 0,
    "section_canton": "N/A",
    "language": "DE"
  },
  {
    "id": 68,
    "parent_id": 0,
    "name": "Sektion Eggenfelden",
    "layer_group_id": 68,
    "street": "Moosen 1a",
    "zip_code": "84553",
    "town": "Halsbach",
    "foundation_year": 0,
    "section_canton": "N/A",
    "language": "DE"
  },
  {
    "id": 69,
    "parent_id": 0,
    "name": "Sektion Eichstätt-Neuburg",
    "layer_group_id": 69,
    "street": "Kipfenbergerstraße 25",
    "zip_code": "85072",
    "town": "Eichstätt",
    "foundation_year": 0,
    "section_canton": "N/A",
    "language": "DE"
  },
  {
    "id": 71,
    "parent_id": 0,
    "name": "Sektion Ettlingen",
    "layer_group_id": 71,
    "street": "Kronenstr. 7",
    "zip_code": "76275",
    "town": "Ettlingen",
    "foundation_year": 0,
    "section_canton": "N/A",
    "language": "DE"
  },
  {
    "id": 72,
    "parent_id": 0,
    "name": "Sektion Erlangen",
    "layer_group_id": 72,
    "street": "Hartmannstraße 116",
    "zip_code": "91052",
    "town": "Erlangen",
    "foundation_year": 0,
    "section_canton": "N/A",
    "language": "DE"
  },
  {
    "id": 73,
    "parent_id": 0,
    "name": "Sektion Essen",
    "layer_group_id": 73,
    "street": "Twentmannstr. 125",
    "zip_code": "45326",
    "town": "Essen",
    "foundation_year": 0,
    "section_canton": "N/A",
    "language": "DE"
  },
  {
    "id": 74,
    "parent_id": 0,
    "name": "Sektion Firnland",
    "layer_group_id": 74,
    "street": "Franz-Schubert-Str.13",
    "zip_code": "82008",
    "town": "Unterhaching",
    "foundation_year": 0,
    "section_canton": "N/A",
    "language": "DE"
  },
  {
    "id": 75,
    "parent_id": 0,
    "name": "Sektion Flensburg",
    "layer_group_id": 75,
    "street": "Postfach 14 37",
    "zip_code": "24904",
    "town": "Flensburg",
    "foundation_year": 0,
    "section_canton": "N/A",
    "language": "DE"
  },
  {
    "id": 76,
    "parent_id": 0,
    "name": "Sektion Forchheim",
    "layer_group_id": 76,
    "street": "Wiesentstraße 2",
    "zip_code": "91301",
    "town": "Forchheim",
    "foundation_year": 0,
    "section_canton": "N/A",
    "language": "DE"
  },
  {
    "id": 77,
    "parent_id": 0,
    "name": "Sektion Frankenland",
    "layer_group_id": 77,
    "street": "Gladiolenweg 38",
    "zip_code": "90768",
    "town": "Fürth",
    "foundation_year": 0,
    "section_canton": "N/A",
    "language": "DE"
  },
  {
    "id": 78,
    "parent_id": 0,
    "name": "Sektion Frankenthal",
    "layer_group_id": 78,
    "street": "Mörscher Straße 89",
    "zip_code": "67227",
    "town": "Frankenthal",
    "foundation_year": 0,
    "section_canton": "N/A",
    "language": "DE"
  },
  {
    "id": 79,
    "parent_id": 0,
    "name": "Sektion Frankfurt/Main",
    "layer_group_id": 79,
    "street": "Homburger Landstr. 283",
    "zip_code": "60433",
    "town": "Frankfurt",
    "foundation_year": 0,
    "section_canton": "N/A",
    "language": "DE"
  },
  {
    "id": 80,
    "parent_id": 0,
    "name": "Sektion Freiburg-Breisgau",
    "layer_group_id": 80,
    "street": "Lörracher Str. 20 a",
    "zip_code": "79115",
    "town": "Freiburg",
    "foundation_year": 0,
    "section_canton": "N/A",
    "language": "DE"
  },
  {
    "id": 81,
    "parent_id": 0,
    "name": "Sektion Freilassing",
    "layer_group_id": 81,
    "street": "Aumühlweg 7",
    "zip_code": "83395",
    "town": "Freilassing",
    "foundation_year": 0,
    "section_canton": "N/A",
    "language": "DE"
  },
  {
    "id": 82,
    "parent_id": 0,
    "name": "Sektion Freising",
    "layer_group_id": 82,
    "street": "Seilerbrücklstr. 3",
    "zip_code": "85354",
    "town": "Freising",
    "foundation_year": 0,
    "section_canton": "N/A",
    "language": "DE"
  },
  {
    "id": 83,
    "parent_id": 0,
    "name": "Sektion Freudenstadt",
    "layer_group_id": 83,
    "street": "Muggengärtlestr. 24",
    "zip_code": "72250",
    "town": "Freudenstadt",
    "foundation_year": 0,
    "section_canton": "N/A",
    "language": "DE"
  },
  {
    "id": 84,
    "parent_id": 0,
    "name": "Sektion Friedrichshafen",
    "layer_group_id": 84,
    "street": "Untereschstr. 19",
    "zip_code": "88046",
    "town": "Friedrichshafen",
    "foundation_year": 0,
    "section_canton": "N/A",
    "language": "DE"
  },
  {
    "id": 85,
    "parent_id": 0,
    "name": "Sektion Fürth",
    "layer_group_id": 85,
    "street": "Königswarterstr. 46",
    "zip_code": "90762",
    "town": "Fürth",
    "foundation_year": 0,
    "section_canton": "N/A",
    "language": "DE"
  },
  {
    "id": 86,
    "parent_id": 0,
    "name": "Sektion Füssen",
    "layer_group_id": 86,
    "street": "Dietringer Str. 50",
    "zip_code": "87669",
    "town": "Rieden",
    "foundation_year": 0,
    "section_canton": "N/A",
    "language": "DE"
  },
  {
    "id": 87,
    "parent_id": 0,
    "name": "Sektion Fulda",
    "layer_group_id": 87,
    "street": "Goerdelerstraße 72",
    "zip_code": "36100",
    "town": "Petersberg",
    "foundation_year": 0,
    "section_canton": "N/A",
    "language": "DE"
  },
  {
    "id": 89,
    "parent_id": 0,
    "name": "Sektion Gangkofen",
    "layer_group_id": 89,
    "street": "Jahnstraße 1",
    "zip_code": "84140",
    "town": "Gangkofen",
    "foundation_year": 0,
    "section_canton": "N/A",
    "language": "DE"
  },
  {
    "id": 90,
    "parent_id": 0,
    "name": "Sektion Garmisch-Partenkirchen",
    "layer_group_id": 90,
    "street": "Prof.-Carl-Reiser-Str. 2",
    "zip_code": "82467",
    "town": "Garmisch Partenkirchen",
    "foundation_year": 0,
    "section_canton": "N/A",
    "language": "DE"
  },
  {
    "id": 91,
    "parent_id": 0,
    "name": "Sektion Geislingen/Steige",
    "layer_group_id": 91,
    "street": "Schulstraße 13",
    "zip_code": "73312",
    "town": "Geislingen",
    "foundation_year": 0,
    "section_canton": "N/A",
    "language": "DE"
  },
  {
    "id": 92,
    "parent_id": 0,
    "name": "Sektion Gelsenkirchen",
    "layer_group_id": 92,
    "street": "Hüssenerstr. 17",
    "zip_code": "45886",
    "town": "Gelsenkirchen",
    "foundation_year": 0,
    "section_canton": "N/A",
    "language": "DE"
  },
  {
    "id": 93,
    "parent_id": 0,
    "name": "Sektion Geltendorf",
    "layer_group_id": 93,
    "street": "Am Sportplatz 2",
    "zip_code": "82269",
    "town": "Geltendorf",
    "foundation_year": 0,
    "section_canton": "N/A",
    "language": "DE"
  },
  {
    "id": 94,
    "parent_id": 0,
    "name": "Sektion Gersthofen",
    "layer_group_id": 94,
    "street": "Westendstraße 20",
    "zip_code": "86368",
    "town": "Gersthofen",
    "foundation_year": 0,
    "section_canton": "N/A",
    "language": "DE"
  },
  {
    "id": 95,
    "parent_id": 0,
    "name": "Sektion Gießen-Oberhessen",
    "layer_group_id": 95,
    "street": "Rödgener Str. 70",
    "zip_code": "35394",
    "town": "Gießen",
    "foundation_year": 0,
    "section_canton": "N/A",
    "language": "DE"
  },
  {
    "id": 96,
    "parent_id": 0,
    "name": "Sektion Gipfelstürmer 08",
    "layer_group_id": 96,
    "street": "Ernst-Toller-Str. 3",
    "zip_code": "90455",
    "town": "Nürnberg",
    "foundation_year": 0,
    "section_canton": "N/A",
    "language": "DE"
  },
  {
    "id": 97,
    "parent_id": 0,
    "name": "Sektion Gleißental",
    "layer_group_id": 97,
    "street": "Tisinstraße 8",
    "zip_code": "82041",
    "town": "Oberhaching",
    "foundation_year": 0,
    "section_canton": "N/A",
    "language": "DE"
  },
  {
    "id": 99,
    "parent_id": 0,
    "name": "Sektion Göttingen",
    "layer_group_id": 99,
    "street": "Kurze Straße 16",
    "zip_code": "37073",
    "town": "Göttingen",
    "foundation_year": 0,
    "section_canton": "N/A",
    "language": "DE"
  },
  {
    "id": 100,
    "parent_id": 0,
    "name": "Sektion Goslar",
    "layer_group_id": 100,
    "street": "Bäringerstraße 27",
    "zip_code": "38640",
    "town": "Goslar",
    "foundation_year": 0,
    "section_canton": "N/A",
    "language": "DE"
  },
  {
    "id": 101,
    "parent_id": 0,
    "name": "Sektion Greiz Sitz Marktredw.",
    "layer_group_id": 101,
    "street": "Am Labbach 20F",
    "zip_code": "82541",
    "town": "Münsing, Starnberger See",
    "foundation_year": 0,
    "section_canton": "N/A",
    "language": "DE"
  },
  {
    "id": 102,
    "parent_id": 0,
    "name": "Sektion Bad Griesbach im Rottal",
    "layer_group_id": 102,
    "street": "Grünleithenweg 4",
    "zip_code": "94086",
    "town": "Bad Griesbach",
    "foundation_year": 0,
    "section_canton": "N/A",
    "language": "DE"
  },
  {
    "id": 103,
    "parent_id": 0,
    "name": "Sektion Guben",
    "layer_group_id": 103,
    "street": "Berliner Str. 24 A",
    "zip_code": "03172",
    "town": "Guben",
    "foundation_year": 0,
    "section_canton": "N/A",
    "language": "DE"
  },
  {
    "id": 104,
    "parent_id": 0,
    "name": "Sektion Günzburg",
    "layer_group_id": 104,
    "street": "Jahnstraße 4a",
    "zip_code": "89312",
    "town": "Günzburg",
    "foundation_year": 0,
    "section_canton": "N/A",
    "language": "DE"
  },
  {
    "id": 105,
    "parent_id": 0,
    "name": "Sektion Gummersbach",
    "layer_group_id": 105,
    "street": "Im Kirschenhof 5",
    "zip_code": "51645",
    "town": "Gummersbach",
    "foundation_year": 0,
    "section_canton": "N/A",
    "language": "DE"
  },
  {
    "id": 106,
    "parent_id": 0,
    "name": "Sektion Gunzenhausen",
    "layer_group_id": 106,
    "street": "Otto-Dietrich-Str. 3",
    "zip_code": "91710",
    "town": "Gunzenhausen",
    "foundation_year": 0,
    "section_canton": "N/A",
    "language": "DE"
  },
  {
    "id": 107,
    "parent_id": 0,
    "name": "Sektion Haag",
    "layer_group_id": 107,
    "street": "Wasserburgerstr. 25",
    "zip_code": "83527",
    "town": "Haag, Oberbay",
    "foundation_year": 0,
    "section_canton": "N/A",
    "language": "DE"
  },
  {
    "id": 108,
    "parent_id": 0,
    "name": "Sektion Hagen",
    "layer_group_id": 108,
    "street": "Goldbergstraße 12 a",
    "zip_code": "58095",
    "town": "Hagen",
    "foundation_year": 0,
    "section_canton": "N/A",
    "language": "DE"
  },
  {
    "id": 109,
    "parent_id": 0,
    "name": "Sektion Hochtaunus Oberursel",
    "layer_group_id": 109,
    "street": "Am Winterbaum 10",
    "zip_code": "61276",
    "town": "Weilrod",
    "foundation_year": 0,
    "section_canton": "N/A",
    "language": "DE"
  },
  {
    "id": 110,
    "parent_id": 0,
    "name": "Sektion Hamburg und Niederelbe",
    "layer_group_id": 110,
    "street": "Döhrnstraße 4",
    "zip_code": "22529",
    "town": "Hamburg",
    "foundation_year": 0,
    "section_canton": "N/A",
    "language": "DE"
  },
  {
    "id": 111,
    "parent_id": 0,
    "name": "Sektion Hameln",
    "layer_group_id": 111,
    "street": "Fuhlenbreite 8",
    "zip_code": "31789",
    "town": "Hameln",
    "foundation_year": 0,
    "section_canton": "N/A",
    "language": "DE"
  },
  {
    "id": 112,
    "parent_id": 0,
    "name": "Sektion Hanau",
    "layer_group_id": 112,
    "street": "Krämerstr. 8",
    "zip_code": "63450",
    "town": "Hanau",
    "foundation_year": 0,
    "section_canton": "N/A",
    "language": "DE"
  },
  {
    "id": 113,
    "parent_id": 0,
    "name": "DAV Sektion Hannover",
    "layer_group_id": 113,
    "street": "Peiner Str. 28",
    "zip_code": "30519",
    "town": "Hannover",
    "foundation_year": 0,
    "section_canton": "N/A",
    "language": "DE"
  },
  {
    "id": 114,
    "parent_id": 0,
    "name": "Sektion Heidelberg",
    "layer_group_id": 114,
    "street": "Harbigweg 20",
    "zip_code": "69124",
    "town": "Heidelberg",
    "foundation_year": 0,
    "section_canton": "N/A",
    "language": "DE"
  },
  {
    "id": 115,
    "parent_id": 0,
    "name": "Sektion Heilbronn",
    "layer_group_id": 115,
    "street": "Lichtenbergerstr. 17",
    "zip_code": "74076",
    "town": "Heilbronn",
    "foundation_year": 0,
    "section_canton": "N/A",
    "language": "DE"
  },
  {
    "id": 116,
    "parent_id": 0,
    "name": "Sektion Hersbruck",
    "layer_group_id": 116,
    "street": "Hirtengasse 6",
    "zip_code": "91217",
    "town": "Hersbruck",
    "foundation_year": 0,
    "section_canton": "N/A",
    "language": "DE"
  },
  {
    "id": 117,
    "parent_id": 0,
    "name": "Sektion Bad Hersfeld",
    "layer_group_id": 117,
    "street": "Am Berg 3",
    "zip_code": "36251",
    "town": "Bad Hersfeld",
    "foundation_year": 0,
    "section_canton": "N/A",
    "language": "DE"
  },
  {
    "id": 118,
    "parent_id": 0,
    "name": "Sektion Hesselberg",
    "layer_group_id": 118,
    "street": "Ansbacher Str. 48",
    "zip_code": "91572",
    "town": "Bechhofen",
    "foundation_year": 0,
    "section_canton": "N/A",
    "language": "DE"
  },
  {
    "id": 119,
    "parent_id": 0,
    "name": "Sektion Hildesheim",
    "layer_group_id": 119,
    "street": "Lerchenkamp 52",
    "zip_code": "31137",
    "town": "Hildesheim",
    "foundation_year": 0,
    "section_canton": "N/A",
    "language": "DE"
  },
  {
    "id": 120,
    "parent_id": 0,
    "name": "Sektion Hochland",
    "layer_group_id": 120,
    "street": "Koboldstr. 78",
    "zip_code": "81739",
    "town": "München",
    "foundation_year": 0,
    "section_canton": "N/A",
    "language": "DE"
  },
  {
    "id": 121,
    "parent_id": 0,
    "name": "Sektion Hochrhein",
    "layer_group_id": 121,
    "street": "Gießenstraße 18",
    "zip_code": "79713",
    "town": "Bad Säckingen",
    "foundation_year": 0,
    "section_canton": "N/A",
    "language": "DE"
  },
  {
    "id": 122,
    "parent_id": 0,
    "name": "Sektion Hof",
    "layer_group_id": 122,
    "street": "Hans-Böckler-Str. 1",
    "zip_code": "95032",
    "town": "Hof",
    "foundation_year": 0,
    "section_canton": "N/A",
    "language": "DE"
  },
  {
    "id": 123,
    "parent_id": 0,
    "name": "Sektion Hohenstaufen Göppingen",
    "layer_group_id": 123,
    "street": "John-F.-Kennedy-Str. 3",
    "zip_code": "73037",
    "town": "Göppingen",
    "foundation_year": 0,
    "section_canton": "N/A",
    "language": "DE"
  },
  {
    "id": 124,
    "parent_id": 0,
    "name": "Sektion Illertissen",
    "layer_group_id": 124,
    "street": "Hauptstraße 6",
    "zip_code": "89257",
    "town": "Illertissen",
    "foundation_year": 0,
    "section_canton": "N/A",
    "language": "DE"
  },
  {
    "id": 125,
    "parent_id": 0,
    "name": "Sektion Ingolstadt",
    "layer_group_id": 125,
    "street": "Baggerweg 2",
    "zip_code": "85051",
    "town": "Ingolstadt",
    "foundation_year": 0,
    "section_canton": "N/A",
    "language": "DE"
  },
  {
    "id": 126,
    "parent_id": 0,
    "name": "Sektion Isartal",
    "layer_group_id": 126,
    "street": "Wildenwarter Straße 24",
    "zip_code": "81825",
    "town": "München",
    "foundation_year": 0,
    "section_canton": "N/A",
    "language": "DE"
  },
  {
    "id": 127,
    "parent_id": 0,
    "name": "Sektion Isny",
    "layer_group_id": 127,
    "street": "Notre Dame-de-Gravenchon-Str. 5",
    "zip_code": "88316",
    "town": "Isny",
    "foundation_year": 0,
    "section_canton": "N/A",
    "language": "DE"
  },
  {
    "id": 128,
    "parent_id": 0,
    "name": "Sektion Kaiserslautern",
    "layer_group_id": 128,
    "street": "Ludwig-Thoma-Str. 1",
    "zip_code": "67663",
    "town": "Kaiserslautern",
    "foundation_year": 0,
    "section_canton": "N/A",
    "language": "DE"
  },
  {
    "id": 129,
    "parent_id": 0,
    "name": "Sektion Kampenwand",
    "layer_group_id": 129,
    "street": "Hermann-Stockmann Str 86",
    "zip_code": "85221",
    "town": "Dachau",
    "foundation_year": 0,
    "section_canton": "N/A",
    "language": "DE"
  },
  {
    "id": 130,
    "parent_id": 0,
    "name": "Sektion Karlsbad",
    "layer_group_id": 130,
    "street": "Paulusbrunner Weg 11",
    "zip_code": "95643",
    "town": "Tirschenreuth",
    "foundation_year": 0,
    "section_canton": "N/A",
    "language": "DE"
  },
  {
    "id": 131,
    "parent_id": 0,
    "name": "Sektion Karlsruhe",
    "layer_group_id": 131,
    "street": "Am Fächerbad 2",
    "zip_code": "76131",
    "town": "Karlsruhe",
    "foundation_year": 0,
    "section_canton": "N/A",
    "language": "DE"
  },
  {
    "id": 132,
    "parent_id": 0,
    "name": "Sektion Kassel",
    "layer_group_id": 132,
    "street": "Johanna-Waescher-Str. 4",
    "zip_code": "34131",
    "town": "Kassel",
    "foundation_year": 0,
    "section_canton": "N/A",
    "language": "DE"
  },
  {
    "id": 133,
    "parent_id": 0,
    "name": "Sektion Kattowitz",
    "layer_group_id": 133,
    "street": "Franz-Zobel-Str. 38",
    "zip_code": "38259",
    "town": "Salzgitter",
    "foundation_year": 0,
    "section_canton": "N/A",
    "language": "DE"
  },
  {
    "id": 134,
    "parent_id": 0,
    "name": "Sektion Kaufbeuren-Gablonz",
    "layer_group_id": 134,
    "street": "Buronstr. 99",
    "zip_code": "87600",
    "town": "Kaufbeuren",
    "foundation_year": 0,
    "section_canton": "N/A",
    "language": "DE"
  },
  {
    "id": 135,
    "parent_id": 0,
    "name": "Sektion Kelheim",
    "layer_group_id": 135,
    "street": "Ludwig-Thoma-Str. 3",
    "zip_code": "93342",
    "town": "Saal a. d. Donau",
    "foundation_year": 0,
    "section_canton": "N/A",
    "language": "DE"
  },
  {
    "id": 136,
    "parent_id": 0,
    "name": "Sektion Kiel",
    "layer_group_id": 136,
    "street": "Strohredder 17",
    "zip_code": "24149",
    "town": "Kiel",
    "foundation_year": 0,
    "section_canton": "N/A",
    "language": "DE"
  },
  {
    "id": 137,
    "parent_id": 0,
    "name": "Sektion Bad Kissingen",
    "layer_group_id": 137,
    "street": "Geschwister-Scholl-Platz 5",
    "zip_code": "97688",
    "town": "Bad Kissingen",
    "foundation_year": 0,
    "section_canton": "N/A",
    "language": "DE"
  },
  {
    "id": 138,
    "parent_id": 0,
    "name": "Sektion Koblenz",
    "layer_group_id": 138,
    "street": "Kolonnenweg 7",
    "zip_code": "56077",
    "town": "Koblenz",
    "foundation_year": 0,
    "section_canton": "N/A",
    "language": "DE"
  },
  {
    "id": 139,
    "parent_id": 0,
    "name": "Sektion Königsberg",
    "layer_group_id": 139,
    "street": "Fuchsbichl 16",
    "zip_code": "82057",
    "town": "Icking",
    "foundation_year": 0,
    "section_canton": "N/A",
    "language": "DE"
  },
  {
    "id": 140,
    "parent_id": 0,
    "name": "Sektion Konstanz",
    "layer_group_id": 140,
    "street": "Hegaustraße 5",
    "zip_code": "78467",
    "town": "Konstanz",
    "foundation_year": 0,
    "section_canton": "N/A",
    "language": "DE"
  },
  {
    "id": 141,
    "parent_id": 0,
    "name": "Sektion Krefeld",
    "layer_group_id": 141,
    "street": "Landwehr 17",
    "zip_code": "47804",
    "town": "Krefeld",
    "foundation_year": 0,
    "section_canton": "N/A",
    "language": "DE"
  },
  {
    "id": 142,
    "parent_id": 0,
    "name": "Sektion Krumbach",
    "layer_group_id": 142,
    "street": "Carl-Reisch-Weg 5",
    "zip_code": "86381",
    "town": "Krumbach",
    "foundation_year": 0,
    "section_canton": "N/A",
    "language": "DE"
  },
  {
    "id": 143,
    "parent_id": 0,
    "name": "Sektion Kulmbach",
    "layer_group_id": 143,
    "street": "Postfach 1721",
    "zip_code": "95301",
    "town": "Kulmbach",
    "foundation_year": 0,
    "section_canton": "N/A",
    "language": "DE"
  },
  {
    "id": 144,
    "parent_id": 0,
    "name": "Sektion Lahr/Schwarzwald",
    "layer_group_id": 144,
    "street": "Bettmattenstraße 1",
    "zip_code": "77955",
    "town": "Ettenheim",
    "foundation_year": 0,
    "section_canton": "N/A",
    "language": "DE"
  },
  {
    "id": 145,
    "parent_id": 0,
    "name": "Sektion Landau/Pfalz",
    "layer_group_id": 145,
    "street": "Alfred-Nobel-Platz 1",
    "zip_code": "76829",
    "town": "Landau",
    "foundation_year": 0,
    "section_canton": "N/A",
    "language": "DE"
  },
  {
    "id": 146,
    "parent_id": 0,
    "name": "Sektion Landsberg am Lech",
    "layer_group_id": 146,
    "street": "Malteserstraße 425f",
    "zip_code": "86899",
    "town": "Landsberg am Lech",
    "foundation_year": 0,
    "section_canton": "N/A",
    "language": "DE"
  },
  {
    "id": 147,
    "parent_id": 0,
    "name": "Sektion Landshut",
    "layer_group_id": 147,
    "street": "Ritter-von-Schoch-Straße 6",
    "zip_code": "84036",
    "town": "Landshut",
    "foundation_year": 0,
    "section_canton": "N/A",
    "language": "DE"
  },
  {
    "id": 148,
    "parent_id": 0,
    "name": "Sektion Lauf a.d.P.",
    "layer_group_id": 148,
    "street": "Marktplatz 2",
    "zip_code": "91207",
    "town": "Lauf  a. d.  Pegnitz",
    "foundation_year": 0,
    "section_canton": "N/A",
    "language": "DE"
  },
  {
    "id": 149,
    "parent_id": 0,
    "name": "Sektion Laufen",
    "layer_group_id": 149,
    "street": "Lepperding 8",
    "zip_code": "83410",
    "town": "Laufen",
    "foundation_year": 0,
    "section_canton": "N/A",
    "language": "DE"
  },
  {
    "id": 150,
    "parent_id": 0,
    "name": "Sektion Schongau",
    "layer_group_id": 150,
    "street": "Bahnhofstr. 44",
    "zip_code": "86956",
    "town": "Schongau",
    "foundation_year": 0,
    "section_canton": "N/A",
    "language": "DE"
  },
  {
    "id": 152,
    "parent_id": 0,
    "name": "Sektion Leitzachtal",
    "layer_group_id": 152,
    "street": "Almweg 7",
    "zip_code": "83730",
    "town": "Fischbachau",
    "foundation_year": 0,
    "section_canton": "N/A",
    "language": "DE"
  },
  {
    "id": 153,
    "parent_id": 0,
    "name": "Sektion Lenggries",
    "layer_group_id": 153,
    "street": "Dorf 17",
    "zip_code": "83674",
    "town": "Gaißach",
    "foundation_year": 0,
    "section_canton": "N/A",
    "language": "DE"
  },
  {
    "id": 154,
    "parent_id": 0,
    "name": "Sektion Leutkirch",
    "layer_group_id": 154,
    "street": "Werkhausgasse 2",
    "zip_code": "88299",
    "town": "Leutkirch",
    "foundation_year": 0,
    "section_canton": "N/A",
    "language": "DE"
  },
  {
    "id": 155,
    "parent_id": 0,
    "name": "Sektion Lichtenfels",
    "layer_group_id": 155,
    "street": "Königsberger Str. 29",
    "zip_code": "96215",
    "town": "Lichtenfels",
    "foundation_year": 0,
    "section_canton": "N/A",
    "language": "DE"
  },
  {
    "id": 156,
    "parent_id": 0,
    "name": "Sektion Lindau",
    "layer_group_id": 156,
    "street": "Kemptener Straße 16",
    "zip_code": "88131",
    "town": "Lindau",
    "foundation_year": 0,
    "section_canton": "N/A",
    "language": "DE"
  },
  {
    "id": 157,
    "parent_id": 0,
    "name": "Sektion Lörrach",
    "layer_group_id": 157,
    "street": "Hauptstraße 3",
    "zip_code": "79540",
    "town": "Lörrach",
    "foundation_year": 0,
    "section_canton": "N/A",
    "language": "DE"
  },
  {
    "id": 158,
    "parent_id": 0,
    "name": "Sektion Ludwigsburg",
    "layer_group_id": 158,
    "street": "Fuchshofstraße 66",
    "zip_code": "71638",
    "town": "Ludwigsburg",
    "foundation_year": 0,
    "section_canton": "N/A",
    "language": "DE"
  },
  {
    "id": 159,
    "parent_id": 0,
    "name": "Sektion Ludwigshafen am Rhein",
    "layer_group_id": 159,
    "street": "Bleichstr. 19",
    "zip_code": "67061",
    "town": "Ludwigshafen",
    "foundation_year": 0,
    "section_canton": "N/A",
    "language": "DE"
  },
  {
    "id": 160,
    "parent_id": 0,
    "name": "Sektion Lübeck",
    "layer_group_id": 160,
    "street": "Possehlstraße 5",
    "zip_code": "23560",
    "town": "Lübeck",
    "foundation_year": 0,
    "section_canton": "N/A",
    "language": "DE"
  },
  {
    "id": 161,
    "parent_id": 0,
    "name": "Sektion Lüdenscheid",
    "layer_group_id": 161,
    "street": "Ahe 5",
    "zip_code": "58553",
    "town": "Halver",
    "foundation_year": 0,
    "section_canton": "N/A",
    "language": "DE"
  },
  {
    "id": 163,
    "parent_id": 0,
    "name": "Sektion Männer Turnverein München",
    "layer_group_id": 163,
    "street": "Esterbergstr.35",
    "zip_code": "81377",
    "town": "München",
    "foundation_year": 0,
    "section_canton": "N/A",
    "language": "DE"
  },
  {
    "id": 164,
    "parent_id": 0,
    "name": "Sektion Mainburg",
    "layer_group_id": 164,
    "street": "Theresienhöhe 1",
    "zip_code": "84048",
    "town": "Mainburg",
    "foundation_year": 0,
    "section_canton": "N/A",
    "language": "DE"
  },
  {
    "id": 165,
    "parent_id": 0,
    "name": "Sektion Mainz",
    "layer_group_id": 165,
    "street": "Turmstr. 85",
    "zip_code": "55120",
    "town": "Mainz",
    "foundation_year": 0,
    "section_canton": "N/A",
    "language": "DE"
  },
  {
    "id": 166,
    "parent_id": 0,
    "name": "Sektion Mannheim",
    "layer_group_id": 166,
    "street": "Abraham-Lincoln-Allee 7",
    "zip_code": "68309",
    "town": "Mannheim",
    "foundation_year": 0,
    "section_canton": "N/A",
    "language": "DE"
  },
  {
    "id": 167,
    "parent_id": 0,
    "name": "Sektion Marburg/Lahn",
    "layer_group_id": 167,
    "street": "Rudolf-Bultmann-Straße 4 G",
    "zip_code": "35039",
    "town": "Marburg",
    "foundation_year": 0,
    "section_canton": "N/A",
    "language": "DE"
  },
  {
    "id": 170,
    "parent_id": 0,
    "name": "Sektion Memmingen",
    "layer_group_id": 170,
    "street": "Allgäuer Str. 24",
    "zip_code": "87700",
    "town": "Memmingen",
    "foundation_year": 0,
    "section_canton": "N/A",
    "language": "DE"
  },
  {
    "id": 171,
    "parent_id": 0,
    "name": "Sektion Mering",
    "layer_group_id": 171,
    "street": "Bahnhofstraße 126",
    "zip_code": "86438",
    "town": "Kissing",
    "foundation_year": 0,
    "section_canton": "N/A",
    "language": "DE"
  },
  {
    "id": 172,
    "parent_id": 0,
    "name": "Sektion Miesbach",
    "layer_group_id": 172,
    "street": "Friedenstrasse 10",
    "zip_code": "83734",
    "town": "Hausham",
    "foundation_year": 0,
    "section_canton": "N/A",
    "language": "DE"
  },
  {
    "id": 173,
    "parent_id": 0,
    "name": "Sektion Mindelheim",
    "layer_group_id": 173,
    "street": "Luxenhoferstraße 1 a",
    "zip_code": "87719",
    "town": "Mindelheim",
    "foundation_year": 0,
    "section_canton": "N/A",
    "language": "DE"
  },
  {
    "id": 174,
    "parent_id": 0,
    "name": "Sektion Minden/Westfalen",
    "layer_group_id": 174,
    "street": "Stiftstraße 2 b",
    "zip_code": "32427",
    "town": "Minden",
    "foundation_year": 0,
    "section_canton": "N/A",
    "language": "DE"
  },
  {
    "id": 175,
    "parent_id": 0,
    "name": "Sektion Mittelfranken",
    "layer_group_id": 175,
    "street": "Birkenhain 7-b",
    "zip_code": "91094",
    "town": "Bräuningshof",
    "foundation_year": 0,
    "section_canton": "N/A",
    "language": "DE"
  },
  {
    "id": 176,
    "parent_id": 0,
    "name": "Sektion Mittenwald",
    "layer_group_id": 176,
    "street": "Matthias-Klotz-Str. 26",
    "zip_code": "82481",
    "town": "Mittenwald",
    "foundation_year": 0,
    "section_canton": "N/A",
    "language": "DE"
  },
  {
    "id": 177,
    "parent_id": 0,
    "name": "Sektion Mönchengladbach",
    "layer_group_id": 177,
    "street": "Stadtwaldstrasse 225",
    "zip_code": "41179",
    "town": "Mönchengladbach",
    "foundation_year": 0,
    "section_canton": "N/A",
    "language": "DE"
  },
  {
    "id": 178,
    "parent_id": 0,
    "name": "Sektion Moosburg",
    "layer_group_id": 178,
    "street": "Stadtwaldstraße 115",
    "zip_code": "85368",
    "town": "Moosburg",
    "foundation_year": 0,
    "section_canton": "N/A",
    "language": "DE"
  },
  {
    "id": 179,
    "parent_id": 0,
    "name": "Sektion Mühldorf",
    "layer_group_id": 179,
    "street": "Franz-Liszt-Straße 32",
    "zip_code": "84478",
    "town": "Waldkraiburg",
    "foundation_year": 0,
    "section_canton": "N/A",
    "language": "DE"
  },
  {
    "id": 180,
    "parent_id": 0,
    "name": "Sektion Mülheim an der Ruhr",
    "layer_group_id": 180,
    "street": "Bruchstraße 72",
    "zip_code": "45468",
    "town": "Mülheim an der Ruhr",
    "foundation_year": 0,
    "section_canton": "N/A",
    "language": "DE"
  },
  {
    "id": 181,
    "parent_id": 0,
    "name": "Sektion München",
    "layer_group_id": 181,
    "street": "Rindermarkt 3-4",
    "zip_code": "80331",
    "town": "München",
    "foundation_year": 0,
    "section_canton": "N/A",
    "language": "DE"
  },
  {
    "id": 182,
    "parent_id": 0,
    "name": "Sektion Münster/Westfalen",
    "layer_group_id": 182,
    "street": "Grevener Straße 125b",
    "zip_code": "48159",
    "town": "Münster",
    "foundation_year": 0,
    "section_canton": "N/A",
    "language": "DE"
  },
  {
    "id": 183,
    "parent_id": 0,
    "name": "Sektion Murnau",
    "layer_group_id": 183,
    "street": "Seidlstr. 14",
    "zip_code": "82418",
    "town": "Murnau",
    "foundation_year": 0,
    "section_canton": "N/A",
    "language": "DE"
  },
  {
    "id": 184,
    "parent_id": 0,
    "name": "Sektion Nahegau",
    "layer_group_id": 184,
    "street": "Postfach 11 47",
    "zip_code": "55501",
    "town": "Bad Kreuznach",
    "foundation_year": 0,
    "section_canton": "N/A",
    "language": "DE"
  },
  {
    "id": 185,
    "parent_id": 0,
    "name": "Sektion Neuburg/Donau",
    "layer_group_id": 185,
    "street": "Lehenweg 3",
    "zip_code": "86697",
    "town": "Oberhausen",
    "foundation_year": 0,
    "section_canton": "N/A",
    "language": "DE"
  },
  {
    "id": 186,
    "parent_id": 0,
    "name": "Sektion Neuland",
    "layer_group_id": 186,
    "street": "Buchenstraße 3 A",
    "zip_code": "82377",
    "town": "Penzberg",
    "foundation_year": 0,
    "section_canton": "N/A",
    "language": "DE"
  },
  {
    "id": 187,
    "parent_id": 0,
    "name": "Sektion Neumarkt/Oberpfalz",
    "layer_group_id": 187,
    "street": "Dreichlingerstr. 40",
    "zip_code": "92318",
    "town": "Neumarkt",
    "foundation_year": 0,
    "section_canton": "N/A",
    "language": "DE"
  },
  {
    "id": 188,
    "parent_id": 0,
    "name": "Sektion Neuötting-Altötting",
    "layer_group_id": 188,
    "street": "Traunsteiner Str. 1",
    "zip_code": "84503",
    "town": "Altötting",
    "foundation_year": 0,
    "section_canton": "N/A",
    "language": "DE"
  },
  {
    "id": 189,
    "parent_id": 0,
    "name": "Sektion Neustadt/Coburg",
    "layer_group_id": 189,
    "street": "Bachstraße 19",
    "zip_code": "96465",
    "town": "Neustadt",
    "foundation_year": 0,
    "section_canton": "N/A",
    "language": "DE"
  },
  {
    "id": 190,
    "parent_id": 0,
    "name": "Sektion Neustadt/Weinstraße",
    "layer_group_id": 190,
    "street": "Fröbelstraße 24",
    "zip_code": "67433",
    "town": "Neustadt",
    "foundation_year": 0,
    "section_canton": "N/A",
    "language": "DE"
  },
  {
    "id": 191,
    "parent_id": 0,
    "name": "Sektion Neu-Ulm",
    "layer_group_id": 191,
    "street": "Nelsonallee 17",
    "zip_code": "89231",
    "town": "Neu Ulm",
    "foundation_year": 0,
    "section_canton": "N/A",
    "language": "DE"
  },
  {
    "id": 193,
    "parent_id": 0,
    "name": "Sektion Nördlingen",
    "layer_group_id": 193,
    "street": "Baadfeld 19",
    "zip_code": "86753",
    "town": "Nördlingen",
    "foundation_year": 0,
    "section_canton": "N/A",
    "language": "DE"
  },
  {
    "id": 194,
    "parent_id": 0,
    "name": "Sektion Noris",
    "layer_group_id": 194,
    "street": "Ludwigsplatz 19",
    "zip_code": "90403",
    "town": "Nürnberg",
    "foundation_year": 0,
    "section_canton": "N/A",
    "language": "DE"
  },
  {
    "id": 195,
    "parent_id": 0,
    "name": "Sektion Nürnberg",
    "layer_group_id": 195,
    "street": "Kornmarkt 6",
    "zip_code": "90402",
    "town": "Nürnberg",
    "foundation_year": 0,
    "section_canton": "N/A",
    "language": "DE"
  },
  {
    "id": 196,
    "parent_id": 0,
    "name": "Sektion Oberer Neckar",
    "layer_group_id": 196,
    "street": "Stadionstr. 60",
    "zip_code": "78628",
    "town": "Rottweil",
    "foundation_year": 0,
    "section_canton": "N/A",
    "language": "DE"
  },
  {
    "id": 197,
    "parent_id": 0,
    "name": "Sektion Oberkochen",
    "layer_group_id": 197,
    "street": "Postfach 11 63",
    "zip_code": "73447",
    "town": "Oberkochen",
    "foundation_year": 0,
    "section_canton": "N/A",
    "language": "DE"
  },
  {
    "id": 198,
    "parent_id": 0,
    "name": "Sektion Oberland",
    "layer_group_id": 198,
    "street": "Tal 42",
    "zip_code": "80331",
    "town": "München",
    "foundation_year": 0,
    "section_canton": "N/A",
    "language": "DE"
  },
  {
    "id": 199,
    "parent_id": 0,
    "name": "Sektion Oberstaufen-Lindenberg",
    "layer_group_id": 199,
    "street": "Max-Ostheimer-Str. 4",
    "zip_code": "87534",
    "town": "Oberstaufen",
    "foundation_year": 0,
    "section_canton": "N/A",
    "language": "DE"
  },
  {
    "id": 200,
    "parent_id": 0,
    "name": "Sektion Oberstdorf",
    "layer_group_id": 200,
    "street": "Karweidach 1",
    "zip_code": "87561",
    "town": "Oberstdorf",
    "foundation_year": 0,
    "section_canton": "N/A",
    "language": "DE"
  },
  {
    "id": 201,
    "parent_id": 0,
    "name": "Sektion Offenbach",
    "layer_group_id": 201,
    "street": "Oppelner Str. 10",
    "zip_code": "63071",
    "town": "Offenbach am Main",
    "foundation_year": 0,
    "section_canton": "N/A",
    "language": "DE"
  },
  {
    "id": 202,
    "parent_id": 0,
    "name": "Sektion Offenburg",
    "layer_group_id": 202,
    "street": "Rammersweierstraße 9",
    "zip_code": "77654",
    "town": "Offenburg",
    "foundation_year": 0,
    "section_canton": "N/A",
    "language": "DE"
  },
  {
    "id": 203,
    "parent_id": 0,
    "name": "Sektion Oldenburg",
    "layer_group_id": 203,
    "street": "Mittelweg 70",
    "zip_code": "26127",
    "town": "Oldenburg, Oldb",
    "foundation_year": 0,
    "section_canton": "N/A",
    "language": "DE"
  },
  {
    "id": 204,
    "parent_id": 0,
    "name": "Sektion Osnabrück",
    "layer_group_id": 204,
    "street": "Klingensberg 9",
    "zip_code": "49074",
    "town": "Osnabrück",
    "foundation_year": 0,
    "section_canton": "N/A",
    "language": "DE"
  },
  {
    "id": 205,
    "parent_id": 0,
    "name": "Sektion Paderborn",
    "layer_group_id": 205,
    "street": "Im Dörener Feld 2 c",
    "zip_code": "33100",
    "town": "Paderborn",
    "foundation_year": 0,
    "section_canton": "N/A",
    "language": "DE"
  },
  {
    "id": 206,
    "parent_id": 0,
    "name": "Sektion Passau",
    "layer_group_id": 206,
    "street": "Neuburger Str. 118",
    "zip_code": "94036",
    "town": "Passau",
    "foundation_year": 0,
    "section_canton": "N/A",
    "language": "DE"
  },
  {
    "id": 207,
    "parent_id": 0,
    "name": "Sektion Peißenberg",
    "layer_group_id": 207,
    "street": "Alpspitzstr. 13",
    "zip_code": "82380",
    "town": "Peißenberg",
    "foundation_year": 0,
    "section_canton": "N/A",
    "language": "DE"
  },
  {
    "id": 208,
    "parent_id": 0,
    "name": "Sektion Peiting",
    "layer_group_id": 208,
    "street": "Füssener Straße 33",
    "zip_code": "86971",
    "town": "Peiting",
    "foundation_year": 0,
    "section_canton": "N/A",
    "language": "DE"
  },
  {
    "id": 209,
    "parent_id": 0,
    "name": "Sektion Pfarrkirchen",
    "layer_group_id": 209,
    "street": "Maria-Ward-Str. 7",
    "zip_code": "84347",
    "town": "Pfarrkirchen",
    "foundation_year": 0,
    "section_canton": "N/A",
    "language": "DE"
  },
  {
    "id": 210,
    "parent_id": 0,
    "name": "Sektion Pforzheim",
    "layer_group_id": 210,
    "street": "Heidenheimer Straße 3",
    "zip_code": "75179",
    "town": "Pforzheim",
    "foundation_year": 0,
    "section_canton": "N/A",
    "language": "DE"
  },
  {
    "id": 211,
    "parent_id": 0,
    "name": "Sektion Pfronten",
    "layer_group_id": 211,
    "street": "Bildhauer-Sturm-Str. 23",
    "zip_code": "87629",
    "town": "Füssen",
    "foundation_year": 0,
    "section_canton": "N/A",
    "language": "DE"
  },
  {
    "id": 212,
    "parent_id": 0,
    "name": "Sektion Pirmasens",
    "layer_group_id": 212,
    "street": "In den Eichen 19",
    "zip_code": "66953",
    "town": "Pirmasens",
    "foundation_year": 0,
    "section_canton": "N/A",
    "language": "DE"
  },
  {
    "id": 213,
    "parent_id": 0,
    "name": "Sektion Plauen-Vogtland",
    "layer_group_id": 213,
    "street": "Jössnitzer Str. 56",
    "zip_code": "08525",
    "town": "Plauen",
    "foundation_year": 0,
    "section_canton": "N/A",
    "language": "DE"
  },
  {
    "id": 214,
    "parent_id": 0,
    "name": "Sektion Dinkelsbühl",
    "layer_group_id": 214,
    "street": "Klostergasse 19",
    "zip_code": "91550",
    "town": "Dinkelsbühl",
    "foundation_year": 0,
    "section_canton": "N/A",
    "language": "DE"
  },
  {
    "id": 216,
    "parent_id": 0,
    "name": "Sektion Prien am Chiemsee",
    "layer_group_id": 216,
    "street": "Buchenstraße 17",
    "zip_code": "83233",
    "town": "Bernau",
    "foundation_year": 0,
    "section_canton": "N/A",
    "language": "DE"
  },
  {
    "id": 217,
    "parent_id": 0,
    "name": "Sektion Ravensburg",
    "layer_group_id": 217,
    "street": "Brühlstraße 43",
    "zip_code": "88212",
    "town": "Ravensburg",
    "foundation_year": 0,
    "section_canton": "N/A",
    "language": "DE"
  },
  {
    "id": 218,
    "parent_id": 0,
    "name": "Sektion Recklinghausen",
    "layer_group_id": 218,
    "street": "Im Wienäckern 11",
    "zip_code": "45721",
    "town": "Haltern am See",
    "foundation_year": 0,
    "section_canton": "N/A",
    "language": "DE"
  },
  {
    "id": 219,
    "parent_id": 0,
    "name": "Sektion Regensburg",
    "layer_group_id": 219,
    "street": "St.-Katharinen-Platz 4",
    "zip_code": "93059",
    "town": "Regensburg",
    "foundation_year": 0,
    "section_canton": "N/A",
    "language": "DE"
  },
  {
    "id": 220,
    "parent_id": 0,
    "name": "Sektion Bad Reichenhall",
    "layer_group_id": 220,
    "street": "Tiroler Straße 11",
    "zip_code": "83435",
    "town": "Bad Reichenhall",
    "foundation_year": 0,
    "section_canton": "N/A",
    "language": "DE"
  },
  {
    "id": 221,
    "parent_id": 0,
    "name": "Sektion Reutlingen",
    "layer_group_id": 221,
    "street": "Untere Gerberstr. 5+7",
    "zip_code": "72764",
    "town": "Reutlingen",
    "foundation_year": 0,
    "section_canton": "N/A",
    "language": "DE"
  },
  {
    "id": 222,
    "parent_id": 0,
    "name": "Sektion Rheinland-Köln",
    "layer_group_id": 222,
    "street": "Clemensstr. 5 - 7",
    "zip_code": "50676",
    "town": "Köln",
    "foundation_year": 0,
    "section_canton": "N/A",
    "language": "DE"
  },
  {
    "id": 223,
    "parent_id": 0,
    "name": "Sektion Ringsee",
    "layer_group_id": 223,
    "street": "Baggerweg 2",
    "zip_code": "85051",
    "town": "Ingolstadt",
    "foundation_year": 0,
    "section_canton": "N/A",
    "language": "DE"
  },
  {
    "id": 224,
    "parent_id": 0,
    "name": "Sektion Röthenbach",
    "layer_group_id": 224,
    "street": "Friedhofstraße 11",
    "zip_code": "90552",
    "town": "Röthenbach",
    "foundation_year": 0,
    "section_canton": "N/A",
    "language": "DE"
  },
  {
    "id": 225,
    "parent_id": 0,
    "name": "Sektion Rosenheim",
    "layer_group_id": 225,
    "street": "Von-der-Tann-Str. 1 a",
    "zip_code": "83022",
    "town": "Rosenheim",
    "foundation_year": 0,
    "section_canton": "N/A",
    "language": "DE"
  },
  {
    "id": 226,
    "parent_id": 0,
    "name": "Sektion Main-Spessart",
    "layer_group_id": 226,
    "street": "Am Schläglein 5",
    "zip_code": "97828",
    "town": "Marktheidenfeld",
    "foundation_year": 0,
    "section_canton": "N/A",
    "language": "DE"
  },
  {
    "id": 227,
    "parent_id": 0,
    "name": "Sektion Rothenburg o.d.T.",
    "layer_group_id": 227,
    "street": "Klingenschütt 9",
    "zip_code": "91541",
    "town": "Rothenburg/Tauber",
    "foundation_year": 0,
    "section_canton": "N/A",
    "language": "DE"
  },
  {
    "id": 228,
    "parent_id": 0,
    "name": "Sektion Rottal Neumarkt-St. Veit",
    "layer_group_id": 228,
    "street": "St. Veiter-Straße 37",
    "zip_code": "84494",
    "town": "Neumarkt St. Veit",
    "foundation_year": 0,
    "section_canton": "N/A",
    "language": "DE"
  },
  {
    "id": 229,
    "parent_id": 0,
    "name": "Sektion Rüsselsheim",
    "layer_group_id": 229,
    "street": "Am Keesgraben 5",
    "zip_code": "65428",
    "town": "Rüsselsheim-Bauschheim",
    "foundation_year": 0,
    "section_canton": "N/A",
    "language": "DE"
  },
  {
    "id": 231,
    "parent_id": 0,
    "name": "Sektion Bad Saulgau",
    "layer_group_id": 231,
    "street": "Michel-Buck-Straße 26",
    "zip_code": "88348",
    "town": "Bad Saulgau",
    "foundation_year": 0,
    "section_canton": "N/A",
    "language": "DE"
  },
  {
    "id": 232,
    "parent_id": 0,
    "name": "Sektion Schliersee",
    "layer_group_id": 232,
    "street": "Miesbacher Str. 9",
    "zip_code": "83727",
    "town": "Schliersee",
    "foundation_year": 0,
    "section_canton": "N/A",
    "language": "DE"
  },
  {
    "id": 233,
    "parent_id": 0,
    "name": "Sektion Schorndorf",
    "layer_group_id": 233,
    "street": "Johann-Philipp-Palm-Str. 13",
    "zip_code": "73614",
    "town": "Schorndorf",
    "foundation_year": 0,
    "section_canton": "N/A",
    "language": "DE"
  },
  {
    "id": 234,
    "parent_id": 0,
    "name": "Sektion Schrobenhausen",
    "layer_group_id": 234,
    "street": "Breslauer Straße 8",
    "zip_code": "86529",
    "town": "Schrobenhausen",
    "foundation_year": 0,
    "section_canton": "N/A",
    "language": "DE"
  },
  {
    "id": 235,
    "parent_id": 0,
    "name": "Sektion Schwabach",
    "layer_group_id": 235,
    "street": "Penzendorfer Straße 13",
    "zip_code": "91126",
    "town": "Schwabach",
    "foundation_year": 0,
    "section_canton": "N/A",
    "language": "DE"
  },
  {
    "id": 236,
    "parent_id": 0,
    "name": "Sektion Schwaben",
    "layer_group_id": 236,
    "street": "Georgiiweg 5",
    "zip_code": "70597",
    "town": "Stuttgart",
    "foundation_year": 0,
    "section_canton": "N/A",
    "language": "DE"
  },
  {
    "id": 237,
    "parent_id": 0,
    "name": "Sektion Schwabmünchen",
    "layer_group_id": 237,
    "street": "Linderhofstr. 9",
    "zip_code": "86853",
    "town": "Langerringen",
    "foundation_year": 0,
    "section_canton": "N/A",
    "language": "DE"
  },
  {
    "id": 238,
    "parent_id": 0,
    "name": "Sektion Schwäbisch Gmünd",
    "layer_group_id": 238,
    "street": "Uferstr. 38",
    "zip_code": "73525",
    "town": "Schwäbisch Gmünd",
    "foundation_year": 0,
    "section_canton": "N/A",
    "language": "DE"
  },
  {
    "id": 239,
    "parent_id": 0,
    "name": "Sektion Schwarzwald",
    "layer_group_id": 239,
    "street": "Rietgasse 16/1",
    "zip_code": "78050",
    "town": "Villingen-Schwenningen",
    "foundation_year": 0,
    "section_canton": "N/A",
    "language": "DE"
  },
  {
    "id": 240,
    "parent_id": 0,
    "name": "Sektion Schweinfurt",
    "layer_group_id": 240,
    "street": "Albin-Kitzinger-Str. 1",
    "zip_code": "97422",
    "town": "Schweinfurt",
    "foundation_year": 0,
    "section_canton": "N/A",
    "language": "DE"
  },
  {
    "id": 241,
    "parent_id": 0,
    "name": "Sektion SSV Ulm 1846",
    "layer_group_id": 241,
    "street": "Klosterhof 14",
    "zip_code": "89077",
    "town": "Ulm",
    "foundation_year": 0,
    "section_canton": "N/A",
    "language": "DE"
  },
  {
    "id": 242,
    "parent_id": 0,
    "name": "Sektion Selb",
    "layer_group_id": 242,
    "street": "Carl-Netzsch-Str. 24",
    "zip_code": "95100",
    "town": "Selb",
    "foundation_year": 0,
    "section_canton": "N/A",
    "language": "DE"
  },
  {
    "id": 243,
    "parent_id": 0,
    "name": "Sektion Rhein-Sieg",
    "layer_group_id": 243,
    "street": "Hauptstraße 120",
    "zip_code": "53340",
    "town": "Meckenheim",
    "foundation_year": 0,
    "section_canton": "N/A",
    "language": "DE"
  },
  {
    "id": 244,
    "parent_id": 0,
    "name": "Sektion Siegerland",
    "layer_group_id": 244,
    "street": "Effertsufer 105",
    "zip_code": "57072",
    "town": "Siegen",
    "foundation_year": 0,
    "section_canton": "N/A",
    "language": "DE"
  },
  {
    "id": 245,
    "parent_id": 0,
    "name": "Sektion Sigmaringen",
    "layer_group_id": 245,
    "street": "Lindenstraße 25",
    "zip_code": "88637",
    "town": "Leibertingen",
    "foundation_year": 0,
    "section_canton": "N/A",
    "language": "DE"
  },
  {
    "id": 247,
    "parent_id": 0,
    "name": "Sektion Simbach/Inn",
    "layer_group_id": 247,
    "street": "Obersimbach 10",
    "zip_code": "84359",
    "town": "Simbach am Inn",
    "foundation_year": 0,
    "section_canton": "N/A",
    "language": "DE"
  },
  {
    "id": 248,
    "parent_id": 0,
    "name": "Sektion Sonneberg",
    "layer_group_id": 248,
    "street": "Köppelsdorfer Str. 116",
    "zip_code": "96515",
    "town": "Sonneberg",
    "foundation_year": 0,
    "section_canton": "N/A",
    "language": "DE"
  },
  {
    "id": 249,
    "parent_id": 0,
    "name": "Sektion Speyer",
    "layer_group_id": 249,
    "street": "Postfach 19",
    "zip_code": "67113",
    "town": "Mutterstadt",
    "foundation_year": 0,
    "section_canton": "N/A",
    "language": "DE"
  },
  {
    "id": 253,
    "parent_id": 0,
    "name": "Sektion Starnberg",
    "layer_group_id": 253,
    "street": "Am Schloßhölzl 17",
    "zip_code": "82319",
    "town": "Starnberg",
    "foundation_year": 0,
    "section_canton": "N/A",
    "language": "DE"
  },
  {
    "id": 254,
    "parent_id": 0,
    "name": "Sektion Straubing",
    "layer_group_id": 254,
    "street": "Fraunhoferstr. 18",
    "zip_code": "94315",
    "town": "Straubing",
    "foundation_year": 0,
    "section_canton": "N/A",
    "language": "DE"
  },
  {
    "id": 255,
    "parent_id": 0,
    "name": "Sektion Stuttgart",
    "layer_group_id": 255,
    "street": "Rotebühlstraße 59 A",
    "zip_code": "70178",
    "town": "Stuttgart",
    "foundation_year": 0,
    "section_canton": "N/A",
    "language": "DE"
  },
  {
    "id": 256,
    "parent_id": 0,
    "name": "Sektion Sulzbach-Rosenberg",
    "layer_group_id": 256,
    "street": "Rosenberger Str. 27",
    "zip_code": "92237",
    "town": "Sulzbach-Rosenberg",
    "foundation_year": 0,
    "section_canton": "N/A",
    "language": "DE"
  },
  {
    "id": 257,
    "parent_id": 0,
    "name": "Sektion Tegernsee",
    "layer_group_id": 257,
    "street": "Hauptstr. 2",
    "zip_code": "83684",
    "town": "Tegernsee",
    "foundation_year": 0,
    "section_canton": "N/A",
    "language": "DE"
  },
  {
    "id": 258,
    "parent_id": 0,
    "name": "Sektion Teisendorf",
    "layer_group_id": 258,
    "street": "Steinwenderstraße 1",
    "zip_code": "83317",
    "town": "Teisendorf",
    "foundation_year": 0,
    "section_canton": "N/A",
    "language": "DE"
  },
  {
    "id": 260,
    "parent_id": 0,
    "name": "Sektion Tittmoning",
    "layer_group_id": 260,
    "street": "Bergham 4",
    "zip_code": "84529",
    "town": "Tittmoning",
    "foundation_year": 0,
    "section_canton": "N/A",
    "language": "DE"
  },
  {
    "id": 261,
    "parent_id": 0,
    "name": "Sektion Tölz",
    "layer_group_id": 261,
    "street": "Marktstr. 44",
    "zip_code": "83646",
    "town": "Bad Tölz",
    "foundation_year": 0,
    "section_canton": "N/A",
    "language": "DE"
  },
  {
    "id": 262,
    "parent_id": 0,
    "name": "Sektion Traunstein",
    "layer_group_id": 262,
    "street": "Bahnhofstr. 18 b Arkaden",
    "zip_code": "83278",
    "town": "Traunstein",
    "foundation_year": 0,
    "section_canton": "N/A",
    "language": "DE"
  },
  {
    "id": 263,
    "parent_id": 0,
    "name": "Sektion Treuchtlingen",
    "layer_group_id": 263,
    "street": "Ludwig-Thoma-Str. 22",
    "zip_code": "91757",
    "town": "Treuchtlingen",
    "foundation_year": 0,
    "section_canton": "N/A",
    "language": "DE"
  },
  {
    "id": 264,
    "parent_id": 0,
    "name": "Sektion Trier",
    "layer_group_id": 264,
    "street": "Hindenburgstr. 5",
    "zip_code": "54290",
    "town": "Trier",
    "foundation_year": 0,
    "section_canton": "N/A",
    "language": "DE"
  },
  {
    "id": 265,
    "parent_id": 0,
    "name": "Sektion Trostberg",
    "layer_group_id": 265,
    "street": "Hauptstraße 25",
    "zip_code": "83308",
    "town": "Trostberg",
    "foundation_year": 0,
    "section_canton": "N/A",
    "language": "DE"
  },
  {
    "id": 266,
    "parent_id": 0,
    "name": "Sektion Tübingen",
    "layer_group_id": 266,
    "street": "Kornhausstr. 21",
    "zip_code": "72070",
    "town": "Tübingen",
    "foundation_year": 0,
    "section_canton": "N/A",
    "language": "DE"
  },
  {
    "id": 267,
    "parent_id": 0,
    "name": "Sektion Turner-Alpenkränzchen",
    "layer_group_id": 267,
    "street": "Kellerstr. 37",
    "zip_code": "81667",
    "town": "München",
    "foundation_year": 0,
    "section_canton": "N/A",
    "language": "DE"
  },
  {
    "id": 269,
    "parent_id": 0,
    "name": "Sektion Tuttlingen",
    "layer_group_id": 269,
    "street": "Waaghausstraße 16",
    "zip_code": "78532",
    "town": "Tuttlingen",
    "foundation_year": 0,
    "section_canton": "N/A",
    "language": "DE"
  },
  {
    "id": 270,
    "parent_id": 0,
    "name": "Sektion Tutzing",
    "layer_group_id": 270,
    "street": "Postfach 1146",
    "zip_code": "82323",
    "town": "Tutzing",
    "foundation_year": 0,
    "section_canton": "N/A",
    "language": "DE"
  },
  {
    "id": 271,
    "parent_id": 0,
    "name": "Sektion Überlingen",
    "layer_group_id": 271,
    "street": "St.-Johann-Str. 15",
    "zip_code": "88662",
    "town": "Überlingen",
    "foundation_year": 0,
    "section_canton": "N/A",
    "language": "DE"
  },
  {
    "id": 272,
    "parent_id": 0,
    "name": "Sektion Ulm",
    "layer_group_id": 272,
    "street": "Radgasse 27",
    "zip_code": "89073",
    "town": "Ulm",
    "foundation_year": 0,
    "section_canton": "N/A",
    "language": "DE"
  },
  {
    "id": 273,
    "parent_id": 0,
    "name": "Sektion USC München",
    "layer_group_id": 273,
    "street": "Helene-Mayer-Ring 31",
    "zip_code": "80809",
    "town": "München",
    "foundation_year": 0,
    "section_canton": "N/A",
    "language": "DE"
  },
  {
    "id": 274,
    "parent_id": 0,
    "name": "Sektion Vierseenland",
    "layer_group_id": 274,
    "street": "Hauptstraße 42",
    "zip_code": "82229",
    "town": "Seefeld",
    "foundation_year": 0,
    "section_canton": "N/A",
    "language": "DE"
  },
  {
    "id": 275,
    "parent_id": 0,
    "name": "Sektion Waakirchen",
    "layer_group_id": 275,
    "street": "Rosenweg 6",
    "zip_code": "83666",
    "town": "Waakirchen",
    "foundation_year": 0,
    "section_canton": "N/A",
    "language": "DE"
  },
  {
    "id": 276,
    "parent_id": 0,
    "name": "Sektion Wangen",
    "layer_group_id": 276,
    "street": "Herzmannser Weg 40/1",
    "zip_code": "88239",
    "town": "Wangen",
    "foundation_year": 0,
    "section_canton": "N/A",
    "language": "DE"
  },
  {
    "id": 277,
    "parent_id": 0,
    "name": "Sektion Wasserburg am Inn",
    "layer_group_id": 277,
    "street": "Kaspar-Aiblinger-Platz 26",
    "zip_code": "83512",
    "town": "Wasserburg",
    "foundation_year": 0,
    "section_canton": "N/A",
    "language": "DE"
  },
  {
    "id": 278,
    "parent_id": 0,
    "name": "Sektion Weiden",
    "layer_group_id": 278,
    "street": "Fleischgasse 18",
    "zip_code": "92637",
    "town": "Weiden",
    "foundation_year": 0,
    "section_canton": "N/A",
    "language": "DE"
  },
  {
    "id": 279,
    "parent_id": 0,
    "name": "Sektion Weiler",
    "layer_group_id": 279,
    "street": "Am Kurbad 30a",
    "zip_code": "88171",
    "town": "Weiler-Simmerberg",
    "foundation_year": 0,
    "section_canton": "N/A",
    "language": "DE"
  },
  {
    "id": 280,
    "parent_id": 0,
    "name": "Sektion Weilheim",
    "layer_group_id": 280,
    "street": "Kohlwinklstraße 38",
    "zip_code": "82362",
    "town": "Weilheim",
    "foundation_year": 0,
    "section_canton": "N/A",
    "language": "DE"
  },
  {
    "id": 281,
    "parent_id": 0,
    "name": "Sektion Weinheim/Bergstraße",
    "layer_group_id": 281,
    "street": "Birkenauer Talstr. 99",
    "zip_code": "69469",
    "town": "Weinheim",
    "foundation_year": 0,
    "section_canton": "N/A",
    "language": "DE"
  },
  {
    "id": 282,
    "parent_id": 0,
    "name": "Sektion Weißenburg",
    "layer_group_id": 282,
    "street": "Schiessgrabenmauer 14",
    "zip_code": "91781",
    "town": "Weißenburg",
    "foundation_year": 0,
    "section_canton": "N/A",
    "language": "DE"
  },
  {
    "id": 283,
    "parent_id": 0,
    "name": "Sektion Weserland",
    "layer_group_id": 283,
    "street": "Am Feldberg 26",
    "zip_code": "37671",
    "town": "Höxter",
    "foundation_year": 0,
    "section_canton": "N/A",
    "language": "DE"
  },
  {
    "id": 284,
    "parent_id": 0,
    "name": "Sektion Wetzlar",
    "layer_group_id": 284,
    "street": "Sportparkstraße 3a",
    "zip_code": "35578",
    "town": "Wetzlar",
    "foundation_year": 0,
    "section_canton": "N/A",
    "language": "DE"
  },
  {
    "id": 285,
    "parent_id": 0,
    "name": "Sektion Wiesbaden",
    "layer_group_id": 285,
    "street": "In der Lach 4",
    "zip_code": "65207",
    "town": "Wiesbaden",
    "foundation_year": 0,
    "section_canton": "N/A",
    "language": "DE"
  },
  {
    "id": 286,
    "parent_id": 0,
    "name": "Sektion Wilhelmshaven",
    "layer_group_id": 286,
    "street": "Freiligrathstraße 269",
    "zip_code": "26386",
    "town": "Wilhelmshaven",
    "foundation_year": 0,
    "section_canton": "N/A",
    "language": "DE"
  },
  {
    "id": 287,
    "parent_id": 0,
    "name": "Sektion Witten",
    "layer_group_id": 287,
    "street": "Hauptstr. 19",
    "zip_code": "58452",
    "town": "Witten",
    "foundation_year": 0,
    "section_canton": "N/A",
    "language": "DE"
  },
  {
    "id": 288,
    "parent_id": 0,
    "name": "Sektion Wolfratshausen",
    "layer_group_id": 288,
    "street": "Gebeckstr. 8",
    "zip_code": "82515",
    "town": "Wolfratshausen",
    "foundation_year": 0,
    "section_canton": "N/A",
    "language": "DE"
  },
  {
    "id": 289,
    "parent_id": 0,
    "name": "Sektion Worms",
    "layer_group_id": 289,
    "street": "Ludwigstraße 33",
    "zip_code": "67547",
    "town": "Worms",
    "foundation_year": 0,
    "section_canton": "N/A",
    "language": "DE"
  },
  {
    "id": 290,
    "parent_id": 0,
    "name": "Sektion Würzburg",
    "layer_group_id": 290,
    "street": "Weißenburgstraße 59a",
    "zip_code": "97082",
    "town": "Würzburg",
    "foundation_year": 0,
    "section_canton": "N/A",
    "language": "DE"
  },
  {
    "id": 291,
    "parent_id": 0,
    "name": "Sektion Zweibrücken",
    "layer_group_id": 291,
    "street": "Neugartenstr. 4",
    "zip_code": "66497",
    "town": "Contwig",
    "foundation_year": 0,
    "section_canton": "N/A",
    "language": "DE"
  },
  {
    "id": 293,
    "parent_id": 0,
    "name": "Sektion Rottenburg",
    "layer_group_id": 293,
    "street": "Königstraße 45",
    "zip_code": "72108",
    "town": "Rottenburg",
    "foundation_year": 0,
    "section_canton": "N/A",
    "language": "DE"
  },
  {
    "id": 294,
    "parent_id": 0,
    "name": "Sektion Friedberg",
    "layer_group_id": 294,
    "street": "Herrgottsruhstr. 2",
    "zip_code": "86316",
    "town": "Friedberg",
    "foundation_year": 0,
    "section_canton": "N/A",
    "language": "DE"
  },
  {
    "id": 296,
    "parent_id": 0,
    "name": "Sektion Taufkirchen/Vils",
    "layer_group_id": 296,
    "street": "Flaring 11",
    "zip_code": "84416",
    "town": "Taufkirchen/Vils",
    "foundation_year": 0,
    "section_canton": "N/A",
    "language": "DE"
  },
  {
    "id": 297,
    "parent_id": 0,
    "name": "Sektion Zorneding",
    "layer_group_id": 297,
    "street": "Wasserburger Landstraße 29",
    "zip_code": "85604",
    "town": "Zorneding",
    "foundation_year": 0,
    "section_canton": "N/A",
    "language": "DE"
  },
  {
    "id": 298,
    "parent_id": 0,
    "name": "Sektion Otterfing",
    "layer_group_id": 298,
    "street": "Nordsiedlung 12",
    "zip_code": "83624",
    "town": "Otterfing",
    "foundation_year": 0,
    "section_canton": "N/A",
    "language": "DE"
  },
  {
    "id": 299,
    "parent_id": 0,
    "name": "Sektion Bocholt",
    "layer_group_id": 299,
    "street": "Weserstraße 35",
    "zip_code": "46395",
    "town": "Bocholt",
    "foundation_year": 0,
    "section_canton": "N/A",
    "language": "DE"
  },
  {
    "id": 300,
    "parent_id": 0,
    "name": "Sektion Solingen",
    "layer_group_id": 300,
    "street": "Stresemannstr.17",
    "zip_code": "42719",
    "town": "Solingen",
    "foundation_year": 0,
    "section_canton": "N/A",
    "language": "DE"
  },
  {
    "id": 301,
    "parent_id": 0,
    "name": "Sektion Hochsauerland",
    "layer_group_id": 301,
    "street": "Langewieser Straße 1",
    "zip_code": "59955",
    "town": "Winterberg",
    "foundation_year": 0,
    "section_canton": "N/A",
    "language": "DE"
  },
  {
    "id": 303,
    "parent_id": 0,
    "name": "Sektion Wildsteig",
    "layer_group_id": 303,
    "street": "Am Unterfeld 2",
    "zip_code": "82409",
    "town": "Wildsteig",
    "foundation_year": 0,
    "section_canton": "N/A",
    "language": "DE"
  },
  {
    "id": 304,
    "parent_id": 0,
    "name": "Sektion Bergbund Hausham",
    "layer_group_id": 304,
    "street": "Am Windfeld 34",
    "zip_code": "83714",
    "town": "Miesbach",
    "foundation_year": 0,
    "section_canton": "N/A",
    "language": "DE"
  },
  {
    "id": 306,
    "parent_id": 0,
    "name": "Sektion Mengen",
    "layer_group_id": 306,
    "street": "Abt-Bischof-Spies-Straße 11",
    "zip_code": "88521",
    "town": "Ertingen",
    "foundation_year": 0,
    "section_canton": "N/A",
    "language": "DE"
  },
  {
    "id": 307,
    "parent_id": 0,
    "name": "Sektion Garching",
    "layer_group_id": 307,
    "street": "Postfach 11 17",
    "zip_code": "85739",
    "town": "Garching",
    "foundation_year": 0,
    "section_canton": "N/A",
    "language": "DE"
  },
  {
    "id": 308,
    "parent_id": 0,
    "name": "Sektion Bad Waldsee",
    "layer_group_id": 308,
    "street": "Schellenberg 7",
    "zip_code": "88339",
    "town": "Bad Waldsee",
    "foundation_year": 0,
    "section_canton": "N/A",
    "language": "DE"
  },
  {
    "id": 309,
    "parent_id": 0,
    "name": "Sektion Karpaten",
    "layer_group_id": 309,
    "street": "Zehntfeldstr. 174b",
    "zip_code": "81825",
    "town": "München",
    "foundation_year": 0,
    "section_canton": "N/A",
    "language": "DE"
  },
  {
    "id": 311,
    "parent_id": 0,
    "name": "Sektion Bergfreunde München",
    "layer_group_id": 311,
    "street": "Müllerstr. 8",
    "zip_code": "82216",
    "town": "Maisach",
    "foundation_year": 0,
    "section_canton": "N/A",
    "language": "DE"
  },
  {
    "id": 312,
    "parent_id": 0,
    "name": "Sektion Oy/Allgäu",
    "layer_group_id": 312,
    "street": "Kirchleithe 12",
    "zip_code": "87466",
    "town": "Oy-Mittelberg",
    "foundation_year": 0,
    "section_canton": "N/A",
    "language": "DE"
  },
  {
    "id": 313,
    "parent_id": 0,
    "name": "Sektion Pfullendorf",
    "layer_group_id": 313,
    "street": "Uttengasse 29",
    "zip_code": "88630",
    "town": "Pfullendorf",
    "foundation_year": 0,
    "section_canton": "N/A",
    "language": "DE"
  },
  {
    "id": 314,
    "parent_id": 0,
    "name": "Sektion Kronach/Frankenwald",
    "layer_group_id": 314,
    "street": "Langer Weg 7",
    "zip_code": "96328",
    "town": "Küps",
    "foundation_year": 0,
    "section_canton": "N/A",
    "language": "DE"
  },
  {
    "id": 315,
    "parent_id": 0,
    "name": "Sektion Abenberg",
    "layer_group_id": 315,
    "street": "Am Langenmoos 16",
    "zip_code": "91186",
    "town": "Büchenbach",
    "foundation_year": 0,
    "section_canton": "N/A",
    "language": "DE"
  },
  {
    "id": 316,
    "parent_id": 0,
    "name": "Sektion Bergfreunde Anhalt Dessau",
    "layer_group_id": 316,
    "street": "Brauereistraße 1-2",
    "zip_code": "06847",
    "town": "Dessau",
    "foundation_year": 0,
    "section_canton": "N/A",
    "language": "DE"
  },
  {
    "id": 317,
    "parent_id": 0,
    "name": "Sektion Jena",
    "layer_group_id": 317,
    "street": "Karl-Liebknecht-Straße 3",
    "zip_code": "07749",
    "town": "Jena",
    "foundation_year": 0,
    "section_canton": "N/A",
    "language": "DE"
  },
  {
    "id": 318,
    "parent_id": 0,
    "name": "Sektion Leipzig",
    "layer_group_id": 318,
    "street": "Könneritzstraße 98 a",
    "zip_code": "04229",
    "town": "Leipzig",
    "foundation_year": 0,
    "section_canton": "N/A",
    "language": "DE"
  },
  {
    "id": 319,
    "parent_id": 0,
    "name": "Sektion Pößneck",
    "layer_group_id": 319,
    "street": "Liebengrün 144",
    "zip_code": "07368",
    "town": "Remptendorf",
    "foundation_year": 0,
    "section_canton": "N/A",
    "language": "DE"
  },
  {
    "id": 320,
    "parent_id": 0,
    "name": "Sektion Sächsischer Bergsteigerbund",
    "layer_group_id": 320,
    "street": "Papiermühlengasse 10",
    "zip_code": "01159",
    "town": "Dresden",
    "foundation_year": 0,
    "section_canton": "N/A",
    "language": "DE"
  },
  {
    "id": 321,
    "parent_id": 0,
    "name": "Sektion Suhl",
    "layer_group_id": 321,
    "street": "Rimbachstraße 9",
    "zip_code": "98527",
    "town": "Suhl",
    "foundation_year": 0,
    "section_canton": "N/A",
    "language": "DE"
  },
  {
    "id": 322,
    "parent_id": 0,
    "name": "Sektion Thüringer Bergsteigerbund",
    "layer_group_id": 322,
    "street": "Johannesstraße 2",
    "zip_code": "99084",
    "town": "Erfurt",
    "foundation_year": 0,
    "section_canton": "N/A",
    "language": "DE"
  },
  {
    "id": 323,
    "parent_id": 0,
    "name": "Sektion Chemnitz",
    "layer_group_id": 323,
    "street": "Zieschestr. 37",
    "zip_code": "09111",
    "town": "Chemnitz",
    "foundation_year": 0,
    "section_canton": "N/A",
    "language": "DE"
  },
  {
    "id": 324,
    "parent_id": 0,
    "name": "Sektion Halle/Saale",
    "layer_group_id": 324,
    "street": "Burgstr. 13",
    "zip_code": "06114",
    "town": "Halle (Saale)",
    "foundation_year": 0,
    "section_canton": "N/A",
    "language": "DE"
  },
  {
    "id": 325,
    "parent_id": 0,
    "name": "Sektion Gera",
    "layer_group_id": 325,
    "street": "Rudolf Diener Straße 4",
    "zip_code": "07545",
    "town": "Gera",
    "foundation_year": 0,
    "section_canton": "N/A",
    "language": "DE"
  },
  {
    "id": 327,
    "parent_id": 0,
    "name": "Sektion Zwickau",
    "layer_group_id": 327,
    "street": "Spiegelstr. 5",
    "zip_code": "08056",
    "town": "Zwickau",
    "foundation_year": 0,
    "section_canton": "N/A",
    "language": "DE"
  },
  {
    "id": 328,
    "parent_id": 0,
    "name": "Sektion Ebersbach",
    "layer_group_id": 328,
    "street": "Am Rosenhain 3",
    "zip_code": "02708",
    "town": "Löbau",
    "foundation_year": 0,
    "section_canton": "N/A",
    "language": "DE"
  },
  {
    "id": 329,
    "parent_id": 0,
    "name": "Sektion Rostock",
    "layer_group_id": 329,
    "street": "Dierkower Damm 38 D",
    "zip_code": "18146",
    "town": "Rostock",
    "foundation_year": 0,
    "section_canton": "N/A",
    "language": "DE"
  },
  {
    "id": 330,
    "parent_id": 0,
    "name": "Sektion Altenburg",
    "layer_group_id": 330,
    "street": "Postfach 1105",
    "zip_code": "04581",
    "town": "Altenburg",
    "foundation_year": 0,
    "section_canton": "N/A",
    "language": "DE"
  },
  {
    "id": 332,
    "parent_id": 0,
    "name": "Sektion Buchen-Odenwald e.V.",
    "layer_group_id": 332,
    "street": "Kilgensmühle 3",
    "zip_code": "74722",
    "town": "Buchen",
    "foundation_year": 0,
    "section_canton": "N/A",
    "language": "DE"
  },
  {
    "id": 333,
    "parent_id": 0,
    "name": "Sektion Zittau",
    "layer_group_id": 333,
    "street": "Rathausplatz 10",
    "zip_code": "02763",
    "town": "Zittau",
    "foundation_year": 0,
    "section_canton": "N/A",
    "language": "DE"
  },
  {
    "id": 334,
    "parent_id": 0,
    "name": "Sektion Meiningen",
    "layer_group_id": 334,
    "street": "Puschkinstraße 1",
    "zip_code": "98617",
    "town": "Untermaßfeld",
    "foundation_year": 0,
    "section_canton": "N/A",
    "language": "DE"
  },
  {
    "id": 335,
    "parent_id": 0,
    "name": "Sektion Weimar",
    "layer_group_id": 335,
    "street": "Kromsdorfer Str. 11",
    "zip_code": "99427",
    "town": "Weimar",
    "foundation_year": 0,
    "section_canton": "N/A",
    "language": "DE"
  },
  {
    "id": 336,
    "parent_id": 0,
    "name": "Sektion Wernigerode",
    "layer_group_id": 336,
    "street": "Dornbergsweg 22",
    "zip_code": "38855",
    "town": "Wernigerode",
    "foundation_year": 0,
    "section_canton": "N/A",
    "language": "DE"
  },
  {
    "id": 337,
    "parent_id": 0,
    "name": "Sektion Waltershausen-Gotha",
    "layer_group_id": 337,
    "street": "Hohlweg 52b",
    "zip_code": "99894",
    "town": "Leinatal OT Engelsbach",
    "foundation_year": 0,
    "section_canton": "N/A",
    "language": "DE"
  },
  {
    "id": 338,
    "parent_id": 0,
    "name": "Sektion Potsdam",
    "layer_group_id": 338,
    "street": "Schulstraße 9",
    "zip_code": "14482",
    "town": "Potsdam",
    "foundation_year": 0,
    "section_canton": "N/A",
    "language": "DE"
  },
  {
    "id": 339,
    "parent_id": 0,
    "name": "Sektion Brandenburger Tor",
    "layer_group_id": 339,
    "street": "Inselstraße 8 a",
    "zip_code": "10179",
    "town": "Berlin",
    "foundation_year": 0,
    "section_canton": "N/A",
    "language": "DE"
  },
  {
    "id": 340,
    "parent_id": 0,
    "name": "Sektion Sedlitzer Bergfreunde",
    "layer_group_id": 340,
    "street": "Laugkfeld 22",
    "zip_code": "01968",
    "town": "Senftenberg",
    "foundation_year": 0,
    "section_canton": "N/A",
    "language": "DE"
  },
  {
    "id": 341,
    "parent_id": 0,
    "name": "Sektion Inselberg",
    "layer_group_id": 341,
    "street": "Schmalkalder Str. 54",
    "zip_code": "98596",
    "town": "Brotterode-Trusetal",
    "foundation_year": 0,
    "section_canton": "N/A",
    "language": "DE"
  },
  {
    "id": 342,
    "parent_id": 0,
    "name": "Sektion Nordhausen",
    "layer_group_id": 342,
    "street": "Wilhelm Nebelung Str. 39",
    "zip_code": "99734",
    "town": "Nordhausen",
    "foundation_year": 0,
    "section_canton": "N/A",
    "language": "DE"
  },
  {
    "id": 343,
    "parent_id": 0,
    "name": "Akademische Sektion Dresden",
    "layer_group_id": 343,
    "street": "Weststraße 32",
    "zip_code": "01809",
    "town": "Heidenau",
    "foundation_year": 0,
    "section_canton": "N/A",
    "language": "DE"
  },
  {
    "id": 344,
    "parent_id": 0,
    "name": "Sektion Frankfurt/Oder",
    "layer_group_id": 344,
    "street": "Dorfstr. 16 b",
    "zip_code": "15898",
    "town": "Neuzelle OT Bahro",
    "foundation_year": 0,
    "section_canton": "N/A",
    "language": "DE"
  },
  {
    "id": 345,
    "parent_id": 0,
    "name": "Sektion Georgensgmünd",
    "layer_group_id": 345,
    "street": "Am Anger 6",
    "zip_code": "91166",
    "town": "Georgensgmünd",
    "foundation_year": 0,
    "section_canton": "N/A",
    "language": "DE"
  },
  {
    "id": 346,
    "parent_id": 0,
    "name": "Sektion Feucht",
    "layer_group_id": 346,
    "street": "Schulstraße 28",
    "zip_code": "90537",
    "town": "Feucht",
    "foundation_year": 0,
    "section_canton": "N/A",
    "language": "DE"
  },
  {
    "id": 348,
    "parent_id": 0,
    "name": "Sektion Altdorf",
    "layer_group_id": 348,
    "street": "Hermangasse 1",
    "zip_code": "90518",
    "town": "Altdorf",
    "foundation_year": 0,
    "section_canton": "N/A",
    "language": "DE"
  },
  {
    "id": 349,
    "parent_id": 0,
    "name": "Sektion Dingolfing",
    "layer_group_id": 349,
    "street": "Am Gries 23",
    "zip_code": "94419",
    "town": "Reisbach/Englmannsberg",
    "foundation_year": 0,
    "section_canton": "N/A",
    "language": "DE"
  },
  {
    "id": 350,
    "parent_id": 0,
    "name": "Sektion Magdeburg",
    "layer_group_id": 350,
    "street": "Dodendorfer Straße 22",
    "zip_code": "39112",
    "town": "Magdeburg",
    "foundation_year": 0,
    "section_canton": "N/A",
    "language": "DE"
  },
  {
    "id": 351,
    "parent_id": 0,
    "name": "Sektion Roth",
    "layer_group_id": 351,
    "street": "Hans-Böckler-Str. 24",
    "zip_code": "91154",
    "town": "Roth",
    "foundation_year": 0,
    "section_canton": "N/A",
    "language": "DE"
  },
  {
    "id": 352,
    "parent_id": 0,
    "name": "Sektion Eifel",
    "layer_group_id": 352,
    "street": "Lindenhofstr. 3",
    "zip_code": "53881",
    "town": "Euskirchen",
    "foundation_year": 0,
    "section_canton": "N/A",
    "language": "DE"
  },
  {
    "id": 353,
    "parent_id": 0,
    "name": "Sektion Feuchtwangen",
    "layer_group_id": 353,
    "street": "Weikersdorfer Weg 6",
    "zip_code": "91555",
    "town": "Feuchtwangen",
    "foundation_year": 0,
    "section_canton": "N/A",
    "language": "DE"
  },
  {
    "id": 354,
    "parent_id": 0,
    "name": "Mecklenburger Bergsteigerclub",
    "layer_group_id": 354,
    "street": "Schwaberower Straße 15",
    "zip_code": "19230",
    "town": "Toddin",
    "foundation_year": 0,
    "section_canton": "N/A",
    "language": "DE"
  },
  {
    "id": 356,
    "parent_id": 0,
    "name": "Sektion Kaufering",
    "layer_group_id": 356,
    "street": "Franz-Senn-Weg 1",
    "zip_code": "86916",
    "town": "Kaufering",
    "foundation_year": 0,
    "section_canton": "N/A",
    "language": "DE"
  },
  {
    "id": 357,
    "parent_id": 0,
    "name": "Sektion Apolda",
    "layer_group_id": 357,
    "street": "Bernhardstr. 41",
    "zip_code": "99510",
    "town": "Apolda",
    "foundation_year": 0,
    "section_canton": "N/A",
    "language": "DE"
  },
  {
    "id": 358,
    "parent_id": 0,
    "name": "Sektion Bergbund Würzburg",
    "layer_group_id": 358,
    "street": "Werner-von-Siemens Straße 16",
    "zip_code": "97076",
    "town": "Würzburg",
    "foundation_year": 0,
    "section_canton": "N/A",
    "language": "DE"
  },
  {
    "id": 359,
    "parent_id": 0,
    "name": "Sektion Alexander von Humboldt",
    "layer_group_id": 359,
    "street": "Schönstraße 21",
    "zip_code": "13086",
    "town": "Berlin",
    "foundation_year": 0,
    "section_canton": "N/A",
    "language": "DE"
  },
  {
    "id": 360,
    "parent_id": 0,
    "name": "Sektion AlpinClub e.V. Hannover",
    "layer_group_id": 360,
    "street": "Bredingsfeld 10",
    "zip_code": "30826",
    "town": "Garbsen",
    "foundation_year": 0,
    "section_canton": "N/A",
    "language": "DE"
  },
  {
    "id": 361,
    "parent_id": 0,
    "name": "Sektion Herrieden",
    "layer_group_id": 361,
    "street": "Bayernring 67",
    "zip_code": "91567",
    "town": "Herrieden",
    "foundation_year": 0,
    "section_canton": "N/A",
    "language": "DE"
  },
  {
    "id": 362,
    "parent_id": 0,
    "name": "Sektion Sinsheim",
    "layer_group_id": 362,
    "street": "Mühlweg 9",
    "zip_code": "74939",
    "town": "Zuzenhausen",
    "foundation_year": 0,
    "section_canton": "N/A",
    "language": "DE"
  },
  {
    "id": 363,
    "parent_id": 0,
    "name": "Sektion Hochwald",
    "layer_group_id": 363,
    "street": "Franz-Haas-Straße 8",
    "zip_code": "66687",
    "town": "Wadern",
    "foundation_year": 0,
    "section_canton": "N/A",
    "language": "DE"
  },
  {
    "id": 364,
    "parent_id": 0,
    "name": "Sektion Dresden",
    "layer_group_id": 364,
    "street": "Reitbahnstr. 10",
    "zip_code": "01069",
    "town": "Dresden",
    "foundation_year": 0,
    "section_canton": "N/A",
    "language": "DE"
  },
  {
    "id": 365,
    "parent_id": 0,
    "name": "Sektion Erfurt Alpin",
    "layer_group_id": 365,
    "street": "Mittelhäuser Str. 75",
    "zip_code": "99089",
    "town": "Erfurt",
    "foundation_year": 0,
    "section_canton": "N/A",
    "language": "DE"
  },
  {
    "id": 366,
    "parent_id": 0,
    "name": "Sektion Südharz/Sangerhausen",
    "layer_group_id": 366,
    "street": "Wilhelm-Koenen-Straße 89",
    "zip_code": "06526",
    "town": "Sangerhausen",
    "foundation_year": 0,
    "section_canton": "N/A",
    "language": "DE"
  },
  {
    "id": 367,
    "parent_id": 0,
    "name": "Sektion Alpen.Net",
    "layer_group_id": 367,
    "street": "Ortlerstraße 63",
    "zip_code": "86163",
    "town": "Augsburg",
    "foundation_year": 0,
    "section_canton": "N/A",
    "language": "DE"
  },
  {
    "id": 368,
    "parent_id": 0,
    "name": "Sektion Haar",
    "layer_group_id": 368,
    "street": "Postfach 1131",
    "zip_code": "85540",
    "town": "Haar",
    "foundation_year": 0,
    "section_canton": "N/A",
    "language": "DE"
  },
  {
    "id": 369,
    "parent_id": 0,
    "name": "Sektion GOC",
    "layer_group_id": 369,
    "street": "Müllerstr. 14",
    "zip_code": "80469",
    "town": "München",
    "foundation_year": 0,
    "section_canton": "N/A",
    "language": "DE"
  },
  {
    "id": 370,
    "parent_id": 0,
    "name": "Sektion BSV Leipzig-Mitte",
    "layer_group_id": 370,
    "street": "Prinz-Eugen-Str. 34",
    "zip_code": "04277",
    "town": "Leipzig",
    "foundation_year": 0,
    "section_canton": "N/A",
    "language": "DE"
  },
  {
    "id": 371,
    "parent_id": 0,
    "name": "Sektion Klettersportverein Cottbus",
    "layer_group_id": 371,
    "street": "Gartenstr. 6",
    "zip_code": "03046",
    "town": "Cottbus",
    "foundation_year": 0,
    "section_canton": "N/A",
    "language": "DE"
  },
  {
    "id": 372,
    "parent_id": 0,
    "name": "Sektion Hoher Fläming",
    "layer_group_id": 372,
    "street": "Parkstraße 4",
    "zip_code": "14827",
    "town": "Wiesenburg/Mark",
    "foundation_year": 0,
    "section_canton": "N/A",
    "language": "DE"
  },
  {
    "id": 373,
    "parent_id": 0,
    "name": "Sektion Bergfreunde Kleverland",
    "layer_group_id": 373,
    "street": "Meursfeldstr. 2a",
    "zip_code": "47589",
    "town": "Uedem",
    "foundation_year": 0,
    "section_canton": "N/A",
    "language": "DE"
  },
  {
    "id": 374,
    "parent_id": 0,
    "name": "Sektion AlpinClub Kassel",
    "layer_group_id": 374,
    "street": "Lilienthalstraße 23",
    "zip_code": "34123",
    "town": "Kassel",
    "foundation_year": 0,
    "section_canton": "N/A",
    "language": "DE"
  },
  {
    "id": 375,
    "parent_id": 0,
    "name": "Sektion Markt Schwaben",
    "layer_group_id": 375,
    "street": "Sägmühlenweg 45",
    "zip_code": "85570",
    "town": "Markt Schwaben",
    "foundation_year": 0,
    "section_canton": "N/A",
    "language": "DE"
  },
  {
    "id": 376,
    "parent_id": 0,
    "name": "Sektion Lechbruck",
    "layer_group_id": 376,
    "street": "Am Falchen 34",
    "zip_code": "86983",
    "town": "Lechbruck",
    "foundation_year": 0,
    "section_canton": "N/A",
    "language": "DE"
  },
  {
    "id": 377,
    "parent_id": 0,
    "name": "Sektion Aischtal",
    "layer_group_id": 377,
    "street": "Seenheimer Strasse 3",
    "zip_code": "91438",
    "town": "Bad Windsheim",
    "foundation_year": 0,
    "section_canton": "N/A",
    "language": "DE"
  },
  {
    "id": 378,
    "parent_id": 0,
    "name": "Bergclub Ilmenau",
    "layer_group_id": 378,
    "street": "Langshüttenweg 5",
    "zip_code": "98693",
    "town": "Ilmenau",
    "foundation_year": 0,
    "section_canton": "N/A",
    "language": "DE"
  },
  {
    "id": 379,
    "parent_id": 0,
    "name": "Sektion Nagold",
    "layer_group_id": 379,
    "street": "Postfach 13 08",
    "zip_code": "72193",
    "town": "Nagold",
    "foundation_year": 0,
    "section_canton": "N/A",
    "language": "DE"
  },
  {
    "id": 380,
    "parent_id": 0,
    "name": "Sektion Alpinistenclub",
    "layer_group_id": 380,
    "street": "Lagerstraße 46",
    "zip_code": "82178",
    "town": "Puchheim",
    "foundation_year": 0,
    "section_canton": "N/A",
    "language": "DE"
  },
  {
    "id": 381,
    "parent_id": 0,
    "name": "Sektion Neuruppin",
    "layer_group_id": 381,
    "street": "Fontaneweg 3",
    "zip_code": "16827",
    "town": "Alt Ruppin",
    "foundation_year": 0,
    "section_canton": "N/A",
    "language": "DE"
  },
  {
    "id": 382,
    "parent_id": 0,
    "name": "Sektion Stützpunkt Inntal",
    "layer_group_id": 382,
    "street": "Otto-Wels-Straße 8",
    "zip_code": "83043",
    "town": "Bad Aibling",
    "foundation_year": 0,
    "section_canton": "N/A",
    "language": "DE"
  },
  {
    "id": 383,
    "parent_id": 0,
    "name": "Sektion Gipfelkreuz",
    "layer_group_id": 383,
    "street": "Am See 61",
    "zip_code": "83486",
    "town": "Ramsau",
    "foundation_year": 0,
    "section_canton": "N/A",
    "language": "DE"
  },
  {
    "id": 384,
    "parent_id": 0,
    "name": "Sektion Gay Alpin München",
    "layer_group_id": 384,
    "street": "Müllerstr. 14",
    "zip_code": "80469",
    "town": "München",
    "foundation_year": 0,
    "section_canton": "N/A",
    "language": "DE"
  }
]
